<?xml version="1.0"?>
<gpx version="1.1" creator="GDAL 3.12.1" xmlns:xsi="http://www.w3.org/2001/XMLSchema-instance" xmlns="http://www.topografix.com/GPX/1/1" xsi:schemaLocation="http://www.topografix.com/GPX/1/1 http://www.topografix.com/GPX/1/1/gpx.xsd">
<metadata>
<bounds minlat="34.479958573356271" minlon="-121.813759999349713" maxlat="36.375839961692691" maxlon="-118.757609389722347"/>                                   
</metadata>
<trk>
  <name>Overall</name>
  <trkseg>
    <trkpt lat="34.479958573356271" lon="-118.770841816440225">
        <ele>0.0</ele>
    </trkpt>
    <trkpt lat="34.493831042200327" lon="-118.757609389722347">
        <ele>0.0</ele>
    </trkpt>
    <trkpt lat="34.519201973453164" lon="-118.764173006638885">
        <ele>0.0</ele>
    </trkpt>
    <trkpt lat="34.576742146164179" lon="-118.886206895112991">
        <ele>0.0</ele>
    </trkpt>
    <trkpt lat="34.55113953910768" lon="-118.898884942755103">
        <ele>0.0</ele>
    </trkpt>
    <trkpt lat="34.575371034443378" lon="-118.920629024505615">
        <ele>0.0</ele>
    </trkpt>
    <trkpt lat="34.580327002331614" lon="-118.966796966269612">
        <ele>0.0</ele>
    </trkpt>
    <trkpt lat="34.55844403244555" lon="-119.068948980420828">
        <ele>0.0</ele>
    </trkpt>
    <trkpt lat="34.560348987579346" lon="-119.160262020304799">
        <ele>0.0</ele>
    </trkpt>
    <trkpt lat="34.58201696164906" lon="-119.168195994570851">
        <ele>0.0</ele>
    </trkpt>
    <trkpt lat="34.59810895845294" lon="-119.153756992891431">
        <ele>0.0</ele>
    </trkpt>
    <trkpt lat="34.618229046463966" lon="-119.17911727912724">
        <ele>0.0</ele>
    </trkpt>
    <trkpt lat="34.63905799202621" lon="-119.327143030241132">
        <ele>0.0</ele>
    </trkpt>
    <trkpt lat="34.683873681351542" lon="-119.352608760818839">
        <ele>0.0</ele>
    </trkpt>
    <trkpt lat="34.665917968377471" lon="-119.417271036654711">
        <ele>0.0</ele>
    </trkpt>
    <trkpt lat="34.686439968645573" lon="-119.417634978890419">
        <ele>0.0</ele>
    </trkpt>
    <trkpt lat="34.704504730179906" lon="-119.390825042501092">
        <ele>0.0</ele>
    </trkpt>
    <trkpt lat="34.736464004963636" lon="-119.435646012425423">
        <ele>0.0</ele>
    </trkpt>
    <trkpt lat="34.742233352735639" lon="-119.487611465156078">
        <ele>0.0</ele>
    </trkpt>
    <trkpt lat="34.78637957945466" lon="-119.568103970959783">
        <ele>0.0</ele>
    </trkpt>
    <trkpt lat="34.703553970903158" lon="-119.579075966030359">
        <ele>0.0</ele>
    </trkpt>
    <trkpt lat="34.704486960545182" lon="-119.633609969168901">
        <ele>0.0</ele>
    </trkpt>
    <trkpt lat="34.745461978018284" lon="-119.694372983649373">
        <ele>0.0</ele>
    </trkpt>
    <trkpt lat="34.756187880411744" lon="-119.769921340048313">
        <ele>0.0</ele>
    </trkpt>
    <trkpt lat="34.811724023893476" lon="-119.819439025595784">
        <ele>0.0</ele>
    </trkpt>
    <trkpt lat="34.8475949652493" lon="-119.932629000395536">
        <ele>0.0</ele>
    </trkpt>
    <trkpt lat="34.823913993313909" lon="-119.976626029238105">
        <ele>0.0</ele>
    </trkpt>
    <trkpt lat="34.835745971649885" lon="-120.017585959285498">
        <ele>0.0</ele>
    </trkpt>
    <trkpt lat="34.88487197086215" lon="-119.986150972545147">
        <ele>0.0</ele>
    </trkpt>
    <trkpt lat="34.932126961648464" lon="-119.982130005955696">
        <ele>0.0</ele>
    </trkpt>
    <trkpt lat="34.937391970306635" lon="-120.000912006944418">
        <ele>0.0</ele>
    </trkpt>
    <trkpt lat="34.979395950213075" lon="-120.014712726697326">
        <ele>0.0</ele>
    </trkpt>
    <trkpt lat="34.965650970116258" lon="-120.046539986506104">
        <ele>0.0</ele>
    </trkpt>
    <trkpt lat="34.972270075231791" lon="-120.07800699211657">
        <ele>0.0</ele>
    </trkpt>
    <trkpt lat="35.010251998901367" lon="-120.050049992278218">
        <ele>0.0</ele>
    </trkpt>
    <trkpt lat="35.038521979004145" lon="-120.064075011759996">
        <ele>0.0</ele>
    </trkpt>
    <trkpt lat="35.044058980420232" lon="-120.079025980085135">
        <ele>0.0</ele>
    </trkpt>
    <trkpt lat="35.014468850567937" lon="-120.122850257903337">
        <ele>0.0</ele>
    </trkpt>
    <trkpt lat="35.022484129294753" lon="-120.137775996699929">
        <ele>0.0</ele>
    </trkpt>
    <trkpt lat="35.061956774443388" lon="-120.135472817346454">
        <ele>0.0</ele>
    </trkpt>
    <trkpt lat="35.064593805000186" lon="-120.171814067289233">
        <ele>0.0</ele>
    </trkpt>
    <trkpt lat="35.085559207946062" lon="-120.144944870844483">
        <ele>0.0</ele>
    </trkpt>
    <trkpt lat="35.099928053095937" lon="-120.149993123486638">
        <ele>0.0</ele>
    </trkpt>
    <trkpt lat="35.10406251065433" lon="-120.156835773959756">
        <ele>0.0</ele>
    </trkpt>
    <trkpt lat="35.104246158152819" lon="-120.158542161807418">
        <ele>0.0</ele>
    </trkpt>
    <trkpt lat="35.10365548543632" lon="-120.161018678918481">
        <ele>0.0</ele>
    </trkpt>
    <trkpt lat="35.103483404964209" lon="-120.161457639187574">
        <ele>0.0</ele>
    </trkpt>
    <trkpt lat="35.103383157402277" lon="-120.161564173176885">
        <ele>0.0</ele>
    </trkpt>
    <trkpt lat="35.103263212367892" lon="-120.161768272519112">
        <ele>0.0</ele>
    </trkpt>
    <trkpt lat="35.103255836293101" lon="-120.161807583644986">
        <ele>0.0</ele>
    </trkpt>
    <trkpt lat="35.115486793220043" lon="-120.153032736852765">
        <ele>0.0</ele>
    </trkpt>
    <trkpt lat="35.131607707589865" lon="-120.196846956387162">
        <ele>0.0</ele>
    </trkpt>
    <trkpt lat="35.136515814810991" lon="-120.193607853725553">
        <ele>0.0</ele>
    </trkpt>
    <trkpt lat="35.135623561218381" lon="-120.192084107547998">
        <ele>0.0</ele>
    </trkpt>
    <trkpt lat="35.136958630755544" lon="-120.191527465358377">
        <ele>0.0</ele>
    </trkpt>
    <trkpt lat="35.137176057323813" lon="-120.189669197425246">
        <ele>0.0</ele>
    </trkpt>
    <trkpt lat="35.138399312272668" lon="-120.189185980707407">
        <ele>0.0</ele>
    </trkpt>
    <trkpt lat="35.138416914269328" lon="-120.188847100362182">
        <ele>0.0</ele>
    </trkpt>
    <trkpt lat="35.1385841332376" lon="-120.188386682420969">
        <ele>0.0</ele>
    </trkpt>
    <trkpt lat="35.138644902035594" lon="-120.188247710466385">
        <ele>0.0</ele>
    </trkpt>
    <trkpt lat="35.138709945604205" lon="-120.188131537288427">
        <ele>0.0</ele>
    </trkpt>
    <trkpt lat="35.138726457953453" lon="-120.188097171485424">
        <ele>0.0</ele>
    </trkpt>
    <trkpt lat="35.178134981542826" lon="-120.218502022325993">
        <ele>0.0</ele>
    </trkpt>
    <trkpt lat="35.220847902819514" lon="-120.274316612631083">
        <ele>0.0</ele>
    </trkpt>
    <trkpt lat="35.22467072121799" lon="-120.331584792584181">
        <ele>0.0</ele>
    </trkpt>
    <trkpt lat="35.246229143813252" lon="-120.344535084441304">
        <ele>0.0</ele>
    </trkpt>
    <trkpt lat="35.248606754466891" lon="-120.411663400009274">
        <ele>0.0</ele>
    </trkpt>
    <trkpt lat="35.283695999532938" lon="-120.502297841012478">
        <ele>0.0</ele>
    </trkpt>
    <trkpt lat="35.260555325075984" lon="-120.517319720238447">
        <ele>0.0</ele>
    </trkpt>
    <trkpt lat="35.309465993195772" lon="-120.573559021577239">
        <ele>0.0</ele>
    </trkpt>
    <trkpt lat="35.309446966275573" lon="-120.599062973633409">
        <ele>0.0</ele>
    </trkpt>
    <trkpt lat="35.35116059705615" lon="-120.630527129396796">
        <ele>0.0</ele>
    </trkpt>
    <trkpt lat="35.345627535134554" lon="-120.64354095607996">
        <ele>0.0</ele>
    </trkpt>
    <trkpt lat="35.410661716014147" lon="-120.738950567319989">
        <ele>0.0</ele>
    </trkpt>
    <trkpt lat="35.425073811784387" lon="-120.732525922358036">
        <ele>0.0</ele>
    </trkpt>
    <trkpt lat="35.42797202244401" lon="-120.776210306212306">
        <ele>0.0</ele>
    </trkpt>
    <trkpt lat="35.379513558000326" lon="-120.86439773440361">
        <ele>0.0</ele>
    </trkpt>
    <trkpt lat="35.440628277137876" lon="-120.895262751728296">
        <ele>0.0</ele>
    </trkpt>
    <trkpt lat="35.448231333866715" lon="-120.950085679069161">
        <ele>0.0</ele>
    </trkpt>
    <trkpt lat="35.551105784252286" lon="-121.071426887065172">
        <ele>0.0</ele>
    </trkpt>
    <trkpt lat="35.551321282982826" lon="-121.100064581260085">
        <ele>0.0</ele>
    </trkpt>
    <trkpt lat="35.636421069502831" lon="-121.166136274114251">
        <ele>0.0</ele>
    </trkpt>
    <trkpt lat="35.670397449284792" lon="-121.278676316142082">
        <ele>0.0</ele>
    </trkpt>
    <trkpt lat="35.760479774326086" lon="-121.321588056162">
        <ele>0.0</ele>
    </trkpt>
    <trkpt lat="35.781097998842597" lon="-121.2997967004776">
        <ele>0.0</ele>
    </trkpt>
    <trkpt lat="35.804240014404058" lon="-121.315570017322898">
        <ele>0.0</ele>
    </trkpt>
    <trkpt lat="35.802969988435507" lon="-121.286009978502989">
        <ele>0.0</ele>
    </trkpt>
    <trkpt lat="35.825989963486791" lon="-121.332860039547086">
        <ele>0.0</ele>
    </trkpt>
    <trkpt lat="35.816410034894943" lon="-121.366819990798831">
        <ele>0.0</ele>
    </trkpt>
    <trkpt lat="35.858839983120561" lon="-121.382279992103577">
        <ele>0.0</ele>
    </trkpt>
    <trkpt lat="35.860719960182905" lon="-121.396429985761642">
        <ele>0.0</ele>
    </trkpt>
    <trkpt lat="35.878269989043474" lon="-121.385929975658655">
        <ele>0.0</ele>
    </trkpt>
    <trkpt lat="35.889899963513017" lon="-121.438519963994622">
        <ele>0.0</ele>
    </trkpt>
    <trkpt lat="35.918939989060163" lon="-121.407269965857267">
        <ele>0.0</ele>
    </trkpt>
    <trkpt lat="35.948619972914457" lon="-121.414059977978468">
        <ele>0.0</ele>
    </trkpt>
    <trkpt lat="35.971469962969422" lon="-121.441840035840869">
        <ele>0.0</ele>
    </trkpt>
    <trkpt lat="35.995500041171908" lon="-121.431480003520846">
        <ele>0.0</ele>
    </trkpt>
    <trkpt lat="36.032389970496297" lon="-121.472709998488426">
        <ele>0.0</ele>
    </trkpt>
    <trkpt lat="36.027970025315881" lon="-121.517640016973019">
        <ele>0.0</ele>
    </trkpt>
    <trkpt lat="36.052869977429509" lon="-121.525499979034066">
        <ele>0.0</ele>
    </trkpt>
    <trkpt lat="36.057740030810237" lon="-121.502310018986464">
        <ele>0.0</ele>
    </trkpt>
    <trkpt lat="36.082219965755939" lon="-121.495680017396808">
        <ele>0.0</ele>
    </trkpt>
    <trkpt lat="36.174660036340356" lon="-121.62837996147573">
        <ele>0.0</ele>
    </trkpt>
    <trkpt lat="36.195889972150326" lon="-121.599270030856133">
        <ele>0.0</ele>
    </trkpt>
    <trkpt lat="36.218639966100454" lon="-121.596799967810512">
        <ele>0.0</ele>
    </trkpt>
    <trkpt lat="36.276550032198429" lon="-121.643820013850927">
        <ele>0.0</ele>
    </trkpt>
    <trkpt lat="36.302499985322356" lon="-121.636119978502393">
        <ele>0.0</ele>
    </trkpt>
    <trkpt lat="36.333630038425326" lon="-121.713960031047463">
        <ele>0.0</ele>
    </trkpt>
    <trkpt lat="36.366070015355945" lon="-121.741429958492517">
        <ele>0.0</ele>
    </trkpt>
    <trkpt lat="36.375839961692691" lon="-121.793400021269917">
        <ele>0.0</ele>
    </trkpt>
    <trkpt lat="36.354139968752861" lon="-121.813759999349713">
        <ele>0.0</ele>
    </trkpt>
  </trkseg>
</trk>
</gpx>
