<?xml version="1.0"?>
<gpx version="1.1" creator="GDAL 3.12.1" xmlns:xsi="http://www.w3.org/2001/XMLSchema-instance" xmlns="http://www.topografix.com/GPX/1/1" xsi:schemaLocation="http://www.topografix.com/GPX/1/1 http://www.topografix.com/GPX/1/1/gpx.xsd">
<metadata>
<bounds minlat="37.479796999999998" minlon="-109.550788999999995" maxlat="41.521670999999998" maxlon="-75.086864500000004"/>                                    
</metadata>
<trk>
</trk>
<trk>
  <trkseg>
    <trkpt lat="38.68383" lon="-109.169205">
    </trkpt>
    <trkpt lat="38.692611" lon="-109.170159">
    </trkpt>
  </trkseg>
</trk>
<trk>
</trk>
<trk>
</trk>
<trk>
</trk>
<trk>
</trk>
<trk>
</trk>
<trk>
  <trkseg>
    <trkpt lat="38.992754" lon="-92.619748">
    </trkpt>
    <trkpt lat="38.992011" lon="-92.616424">
    </trkpt>
  </trkseg>
</trk>
<trk>
  <trkseg>
    <trkpt lat="38.680636" lon="-92.29197">
    </trkpt>
    <trkpt lat="38.660003" lon="-92.256597">
    </trkpt>
  </trkseg>
</trk>
<trk>
  <trkseg>
    <trkpt lat="39.550151" lon="-78.462967">
    </trkpt>
    <trkpt lat="39.563549" lon="-78.458298">
    </trkpt>
  </trkseg>
</trk>
<trk>
  <trkseg>
    <trkpt lat="41.512283" lon="-88.105156">
    </trkpt>
    <trkpt lat="41.521671" lon="-88.100762">
    </trkpt>
  </trkseg>
</trk>
<trk>
  <trkseg>
    <trkpt lat="39.69157" lon="-104.996773">
    </trkpt>
    <trkpt lat="39.705078" lon="-104.998932">
    </trkpt>
  </trkseg>
</trk>
<trk>
  <trkseg>
    <trkpt lat="39.740075" lon="-105.521225">
    </trkpt>
    <trkpt lat="39.742062" lon="-105.514207">
    </trkpt>
  </trkseg>
</trk>
<trk>
  <trkseg>
    <trkpt lat="39.541761" lon="-106.055735">
    </trkpt>
    <trkpt lat="39.541535" lon="-106.050386">
    </trkpt>
  </trkseg>
</trk>
<trk>
  <trkseg>
    <trkpt lat="39.199192" lon="-108.898911">
    </trkpt>
    <trkpt lat="39.195457" lon="-108.899094">
    </trkpt>
  </trkseg>
</trk>
<trk>
  <trkseg>
    <trkpt lat="39.176414" lon="-109.020379">
    </trkpt>
    <trkpt lat="39.184519" lon="-109.017741">
    </trkpt>
  </trkseg>
</trk>
<trk>
</trk>
<trk>
  <trkseg>
    <trkpt lat="38.57327" lon="-109.550789">
    </trkpt>
    <trkpt lat="38.564656" lon="-109.52667">
    </trkpt>
    <trkpt lat="38.582941" lon="-109.517739">
    </trkpt>
    <trkpt lat="38.585468" lon="-109.380318">
    </trkpt>
    <trkpt lat="38.542932" lon="-109.307641">
    </trkpt>
    <trkpt lat="38.553768" lon="-109.287676">
    </trkpt>
    <trkpt lat="38.595624" lon="-109.290326">
    </trkpt>
    <trkpt lat="38.590743" lon="-109.259296">
    </trkpt>
    <trkpt lat="38.615658" lon="-109.236135">
    </trkpt>
    <trkpt lat="38.619177" lon="-109.174395">
    </trkpt>
    <trkpt lat="38.644776" lon="-109.157601">
    </trkpt>
    <trkpt lat="38.68396" lon="-109.172319">
    </trkpt>
    <trkpt lat="38.712181" lon="-109.160753">
    </trkpt>
    <trkpt lat="38.676803" lon="-109.211612">
    </trkpt>
    <trkpt lat="38.688865" lon="-109.220554">
    </trkpt>
    <trkpt lat="38.729856" lon="-109.167341">
    </trkpt>
    <trkpt lat="38.726943" lon="-109.209292">
    </trkpt>
    <trkpt lat="38.764044" lon="-109.221953">
    </trkpt>
    <trkpt lat="38.773794" lon="-109.260046">
    </trkpt>
    <trkpt lat="38.802786" lon="-109.27452">
    </trkpt>
    <trkpt lat="38.810927" lon="-109.305175">
    </trkpt>
    <trkpt lat="38.821759" lon="-109.283564">
    </trkpt>
    <trkpt lat="38.865333" lon="-109.29485">
    </trkpt>
    <trkpt lat="38.900925" lon="-109.249851">
    </trkpt>
    <trkpt lat="38.950639" lon="-109.275092">
    </trkpt>
    <trkpt lat="39.012797" lon="-109.242488">
    </trkpt>
    <trkpt lat="39.075236" lon="-109.162505">
    </trkpt>
    <trkpt lat="39.081041" lon="-109.124303">
    </trkpt>
    <trkpt lat="39.115425" lon="-109.148619">
    </trkpt>
    <trkpt lat="39.13675" lon="-109.1109">
    </trkpt>
    <trkpt lat="39.163282" lon="-109.114325">
    </trkpt>
    <trkpt lat="39.136487" lon="-109.099607">
    </trkpt>
    <trkpt lat="39.137779" lon="-109.058859">
    </trkpt>
    <trkpt lat="39.184522" lon="-109.01775">
    </trkpt>
    <trkpt lat="39.219258" lon="-108.957763">
    </trkpt>
    <trkpt lat="39.222972" lon="-108.91314">
    </trkpt>
    <trkpt lat="39.214943" lon="-108.89951">
    </trkpt>
    <trkpt lat="39.201008" lon="-108.908882">
    </trkpt>
    <trkpt lat="39.195463" lon="-108.864783">
    </trkpt>
    <trkpt lat="39.18624" lon="-108.872623">
    </trkpt>
    <trkpt lat="39.169696" lon="-108.849322">
    </trkpt>
    <trkpt lat="39.177439" lon="-108.8077">
    </trkpt>
    <trkpt lat="39.157755" lon="-108.745784">
    </trkpt>
    <trkpt lat="39.121758" lon="-108.73204">
    </trkpt>
    <trkpt lat="39.111207" lon="-108.698088">
    </trkpt>
    <trkpt lat="39.094715" lon="-108.724675">
    </trkpt>
    <trkpt lat="39.079995" lon="-108.711965">
    </trkpt>
    <trkpt lat="39.080116" lon="-108.736618">
    </trkpt>
    <trkpt lat="39.052036" lon="-108.732772">
    </trkpt>
    <trkpt lat="39.056929" lon="-108.667839">
    </trkpt>
    <trkpt lat="39.08407" lon="-108.617914">
    </trkpt>
    <trkpt lat="39.048392" lon="-108.524574">
    </trkpt>
    <trkpt lat="39.019864" lon="-108.52537">
    </trkpt>
    <trkpt lat="38.996516" lon="-108.497253">
    </trkpt>
    <trkpt lat="38.988859" lon="-108.416207">
    </trkpt>
    <trkpt lat="38.959107" lon="-108.360845">
    </trkpt>
    <trkpt lat="38.956558" lon="-108.281996">
    </trkpt>
    <trkpt lat="38.977143" lon="-108.142621">
    </trkpt>
    <trkpt lat="39.023085" lon="-108.087993">
    </trkpt>
    <trkpt lat="39.027178" lon="-108.026652">
    </trkpt>
    <trkpt lat="39.059783" lon="-107.965372">
    </trkpt>
    <trkpt lat="39.06109" lon="-107.923262">
    </trkpt>
    <trkpt lat="39.049643" lon="-107.936813">
    </trkpt>
    <trkpt lat="39.044523" lon="-107.926908">
    </trkpt>
    <trkpt lat="39.060334" lon="-107.882107">
    </trkpt>
    <trkpt lat="39.04296" lon="-107.809345">
    </trkpt>
    <trkpt lat="39.086512" lon="-107.802452">
    </trkpt>
    <trkpt lat="39.105059" lon="-107.781663">
    </trkpt>
    <trkpt lat="39.128467" lon="-107.794222">
    </trkpt>
    <trkpt lat="39.139491" lon="-107.708796">
    </trkpt>
    <trkpt lat="39.16898" lon="-107.706345">
    </trkpt>
    <trkpt lat="39.184262" lon="-107.633312">
    </trkpt>
    <trkpt lat="39.246897" lon="-107.617065">
    </trkpt>
    <trkpt lat="39.230739" lon="-107.539127">
    </trkpt>
    <trkpt lat="39.275455" lon="-107.516837">
    </trkpt>
    <trkpt lat="39.266582" lon="-107.470443">
    </trkpt>
    <trkpt lat="39.318005" lon="-107.418969">
    </trkpt>
    <trkpt lat="39.287265" lon="-107.378293">
    </trkpt>
    <trkpt lat="39.306213" lon="-107.275761">
    </trkpt>
    <trkpt lat="39.19305" lon="-107.281656">
    </trkpt>
    <trkpt lat="39.179732" lon="-107.241836">
    </trkpt>
    <trkpt lat="39.1245206" lon="-107.2707448">
    </trkpt>
    <trkpt lat="39.1015394" lon="-107.2643528">
    </trkpt>
    <trkpt lat="39.0760681" lon="-107.221647">
    </trkpt>
    <trkpt lat="39.060349" lon="-107.098081">
    </trkpt>
    <trkpt lat="39.0341296" lon="-107.0570606">
    </trkpt>
    <trkpt lat="39.0160399" lon="-107.0473893">
    </trkpt>
    <trkpt lat="38.990452" lon="-107.064922">
    </trkpt>
    <trkpt lat="38.9510257" lon="-107.062421">
    </trkpt>
    <trkpt lat="38.8697496" lon="-106.9890989">
    </trkpt>
    <trkpt lat="38.8669159" lon="-106.9023479">
    </trkpt>
    <trkpt lat="38.8922726" lon="-106.89814890000001">
    </trkpt>
    <trkpt lat="38.918361" lon="-106.825608">
    </trkpt>
    <trkpt lat="38.951303" lon="-106.813426">
    </trkpt>
    <trkpt lat="38.994729" lon="-106.756119">
    </trkpt>
    <trkpt lat="39.0174978" lon="-106.748674900000012">
    </trkpt>
    <trkpt lat="38.9685584" lon="-106.666735">
    </trkpt>
    <trkpt lat="38.9678548" lon="-106.635405">
    </trkpt>
    <trkpt lat="38.921904" lon="-106.5944108">
    </trkpt>
    <trkpt lat="38.9474057" lon="-106.5890818">
    </trkpt>
    <trkpt lat="38.9540138" lon="-106.5684741">
    </trkpt>
    <trkpt lat="38.9037703" lon="-106.4761257">
    </trkpt>
    <trkpt lat="38.9830999" lon="-106.4413267">
    </trkpt>
    <trkpt lat="38.986801" lon="-106.45134">
    </trkpt>
    <trkpt lat="38.999674" lon="-106.401695">
    </trkpt>
    <trkpt lat="39.064323" lon="-106.386203">
    </trkpt>
    <trkpt lat="39.075853" lon="-106.303534">
    </trkpt>
    <trkpt lat="39.09503" lon="-106.325708">
    </trkpt>
    <trkpt lat="39.095572" lon="-106.388506">
    </trkpt>
    <trkpt lat="39.127797" lon="-106.390165">
    </trkpt>
    <trkpt lat="39.150935" lon="-106.419072">
    </trkpt>
    <trkpt lat="39.160018" lon="-106.394783">
    </trkpt>
    <trkpt lat="39.204656" lon="-106.362158">
    </trkpt>
    <trkpt lat="39.247283" lon="-106.354311">
    </trkpt>
    <trkpt lat="39.24548" lon="-106.306598">
    </trkpt>
    <trkpt lat="39.259147" lon="-106.292545">
    </trkpt>
    <trkpt lat="39.285003" lon="-106.446752">
    </trkpt>
    <trkpt lat="39.307277" lon="-106.404181">
    </trkpt>
    <trkpt lat="39.328708" lon="-106.406482">
    </trkpt>
    <trkpt lat="39.362552" lon="-106.311265">
    </trkpt>
    <trkpt lat="39.379276" lon="-106.331732">
    </trkpt>
    <trkpt lat="39.424315" lon="-106.301141">
    </trkpt>
    <trkpt lat="39.432676" lon="-106.216881">
    </trkpt>
    <trkpt lat="39.468875" lon="-106.230448">
    </trkpt>
    <trkpt lat="39.499453" lon="-106.154573">
    </trkpt>
    <trkpt lat="39.475581" lon="-106.115445">
    </trkpt>
    <trkpt lat="39.533913" lon="-106.108519">
    </trkpt>
    <trkpt lat="39.538969" lon="-105.972644">
    </trkpt>
    <trkpt lat="39.551556" lon="-105.95908">
    </trkpt>
    <trkpt lat="39.535326" lon="-105.93496">
    </trkpt>
    <trkpt lat="39.507418" lon="-105.943254">
    </trkpt>
    <trkpt lat="39.481854" lon="-105.904759">
    </trkpt>
    <trkpt lat="39.462069" lon="-105.907036">
    </trkpt>
    <trkpt lat="39.5047" lon="-105.859438">
    </trkpt>
    <trkpt lat="39.526563" lon="-105.865421">
    </trkpt>
    <trkpt lat="39.531324" lon="-105.832641">
    </trkpt>
    <trkpt lat="39.596594" lon="-105.87017">
    </trkpt>
    <trkpt lat="39.606709" lon="-105.789209">
    </trkpt>
    <trkpt lat="39.691515" lon="-105.701938">
    </trkpt>
    <trkpt lat="39.695045" lon="-105.703374">
    </trkpt>
    <trkpt lat="39.691456" lon="-105.708459">
    </trkpt>
    <trkpt lat="39.690783" lon="-105.714823">
    </trkpt>
    <trkpt lat="39.694328" lon="-105.732504">
    </trkpt>
    <trkpt lat="39.732809" lon="-105.661691">
    </trkpt>
    <trkpt lat="39.742183" lon="-105.512367">
    </trkpt>
    <trkpt lat="39.727771" lon="-105.517772">
    </trkpt>
    <trkpt lat="39.679959" lon="-105.475043">
    </trkpt>
    <trkpt lat="39.693113" lon="-105.336483">
    </trkpt>
    <trkpt lat="39.659014" lon="-105.287344">
    </trkpt>
    <trkpt lat="39.647416" lon="-105.294293">
    </trkpt>
    <trkpt lat="39.635044" lon="-105.277522">
    </trkpt>
    <trkpt lat="39.633595" lon="-105.227971">
    </trkpt>
    <trkpt lat="39.654581" lon="-105.19399">
    </trkpt>
    <trkpt lat="39.641036" lon="-105.141009">
    </trkpt>
    <trkpt lat="39.663079" lon="-105.125728">
    </trkpt>
    <trkpt lat="39.665796" lon="-105.085566">
    </trkpt>
    <trkpt lat="39.651647" lon="-105.008148">
    </trkpt>
  </trkseg>
  <trkseg>
    <trkpt lat="39.6516472" lon="-105.008147600000015">
    </trkpt>
    <trkpt lat="39.583904" lon="-105.029023">
    </trkpt>
    <trkpt lat="39.546572" lon="-105.087382">
    </trkpt>
    <trkpt lat="39.494575" lon="-105.090422">
    </trkpt>
    <trkpt lat="39.462007" lon="-105.1331">
    </trkpt>
    <trkpt lat="39.434823" lon="-105.123088">
    </trkpt>
    <trkpt lat="39.432517" lon="-105.089235">
    </trkpt>
    <trkpt lat="39.399547" lon="-105.08708">
    </trkpt>
    <trkpt lat="39.383542" lon="-105.107043">
    </trkpt>
    <trkpt lat="39.359083" lon="-105.078323">
    </trkpt>
    <trkpt lat="39.303863" lon="-105.090344">
    </trkpt>
    <trkpt lat="39.346842" lon="-105.031017">
    </trkpt>
    <trkpt lat="39.347507" lon="-104.96692">
    </trkpt>
    <trkpt lat="39.293867" lon="-104.96789">
    </trkpt>
    <trkpt lat="39.25192" lon="-104.944823">
    </trkpt>
    <trkpt lat="39.239415" lon="-104.955893">
    </trkpt>
    <trkpt lat="39.230146" lon="-104.886306">
    </trkpt>
    <trkpt lat="39.202375" lon="-104.858949">
    </trkpt>
    <trkpt lat="39.170215" lon="-104.857917">
    </trkpt>
    <trkpt lat="39.120636" lon="-104.911783">
    </trkpt>
    <trkpt lat="39.102452" lon="-104.872255">
    </trkpt>
    <trkpt lat="39.051281" lon="-104.858465">
    </trkpt>
    <trkpt lat="39.002483" lon="-104.820797">
    </trkpt>
    <trkpt lat="38.958852" lon="-104.83538">
    </trkpt>
    <trkpt lat="38.927009" lon="-104.814661">
    </trkpt>
    <trkpt lat="38.882724" lon="-104.829263">
    </trkpt>
    <trkpt lat="38.897678" lon="-104.872347">
    </trkpt>
    <trkpt lat="38.877665" lon="-104.872247">
    </trkpt>
    <trkpt lat="38.857104" lon="-104.914849">
    </trkpt>
    <trkpt lat="38.935783" lon="-105.017686">
    </trkpt>
    <trkpt lat="38.994169" lon="-105.0514">
    </trkpt>
    <trkpt lat="38.962242" lon="-105.088478">
    </trkpt>
    <trkpt lat="38.941364" lon="-105.15753">
    </trkpt>
    <trkpt lat="38.873542" lon="-105.157031">
    </trkpt>
    <trkpt lat="38.838644" lon="-105.173315">
    </trkpt>
    <trkpt lat="38.812517" lon="-105.158875">
    </trkpt>
    <trkpt lat="38.807564" lon="-105.135998">
    </trkpt>
    <trkpt lat="38.78909" lon="-105.135108">
    </trkpt>
    <trkpt lat="38.66456" lon="-105.226688">
    </trkpt>
    <trkpt lat="38.635086" lon="-105.21246">
    </trkpt>
    <trkpt lat="38.578489" lon="-105.235419">
    </trkpt>
    <trkpt lat="38.506623" lon="-105.208216">
    </trkpt>
    <trkpt lat="38.438319" lon="-105.206241">
    </trkpt>
    <trkpt lat="38.405877" lon="-105.165114">
    </trkpt>
    <trkpt lat="38.384265" lon="-105.066553">
    </trkpt>
    <trkpt lat="38.389172" lon="-104.981835">
    </trkpt>
    <trkpt lat="38.370715" lon="-104.957403">
    </trkpt>
    <trkpt lat="38.35555" lon="-104.842824">
    </trkpt>
    <trkpt lat="38.329578" lon="-104.815021">
    </trkpt>
    <trkpt lat="38.298486" lon="-104.81074">
    </trkpt>
    <trkpt lat="38.280435" lon="-104.725244">
    </trkpt>
    <trkpt lat="38.262208" lon="-104.70422">
    </trkpt>
    <trkpt lat="38.272431" lon="-104.634208">
    </trkpt>
    <trkpt lat="38.227261" lon="-104.544481">
    </trkpt>
    <trkpt lat="38.2365" lon="-104.349887">
    </trkpt>
    <trkpt lat="38.261712" lon="-104.348897">
    </trkpt>
    <trkpt lat="38.246185" lon="-104.238386">
    </trkpt>
    <trkpt lat="38.193659" lon="-104.154861">
    </trkpt>
    <trkpt lat="38.155304" lon="-104.023861">
    </trkpt>
    <trkpt lat="38.163175" lon="-103.894146">
    </trkpt>
    <trkpt lat="38.141462" lon="-103.889195">
    </trkpt>
    <trkpt lat="38.14139" lon="-103.861414">
    </trkpt>
    <trkpt lat="38.097861" lon="-103.866321">
    </trkpt>
    <trkpt lat="38.083337" lon="-103.820942">
    </trkpt>
    <trkpt lat="38.054569" lon="-103.821007">
    </trkpt>
    <trkpt lat="38.04417" lon="-103.701723">
    </trkpt>
    <trkpt lat="38.026001" lon="-103.692614">
    </trkpt>
    <trkpt lat="38.025739" lon="-103.665059">
    </trkpt>
    <trkpt lat="38.011269" lon="-103.665167">
    </trkpt>
    <trkpt lat="38.01094" lon="-103.62858">
    </trkpt>
    <trkpt lat="37.996427" lon="-103.628723">
    </trkpt>
    <trkpt lat="37.985876" lon="-103.557997">
    </trkpt>
    <trkpt lat="37.98597" lon="-103.532683">
    </trkpt>
    <trkpt lat="37.999907" lon="-103.53136">
    </trkpt>
    <trkpt lat="38.054016" lon="-103.406551">
    </trkpt>
    <trkpt lat="38.084657" lon="-103.396511">
    </trkpt>
    <trkpt lat="38.099656" lon="-102.958563">
    </trkpt>
    <trkpt lat="38.062581" lon="-102.927032">
    </trkpt>
    <trkpt lat="38.092531" lon="-102.519654">
    </trkpt>
    <trkpt lat="38.114347" lon="-102.521331">
    </trkpt>
    <trkpt lat="38.115141" lon="-102.210633">
    </trkpt>
    <trkpt lat="38.10084" lon="-102.210294">
    </trkpt>
    <trkpt lat="38.100664" lon="-102.118778">
    </trkpt>
    <trkpt lat="38.028186" lon="-102.118376">
    </trkpt>
    <trkpt lat="38.028071" lon="-102.06356">
    </trkpt>
    <trkpt lat="38.024612" lon="-102.044434">
    </trkpt>
    <trkpt lat="38.015326" lon="-102.041445">
    </trkpt>
    <trkpt lat="38.026531" lon="-102.000505">
    </trkpt>
    <trkpt lat="38.015447" lon="-101.999679">
    </trkpt>
    <trkpt lat="37.998438" lon="-101.885915">
    </trkpt>
    <trkpt lat="37.939538" lon="-101.688267">
    </trkpt>
    <trkpt lat="37.929306" lon="-101.516389">
    </trkpt>
    <trkpt lat="37.884806" lon="-101.37577">
    </trkpt>
    <trkpt lat="37.934515" lon="-101.262984">
    </trkpt>
    <trkpt lat="37.988081" lon="-101.191461">
    </trkpt>
    <trkpt lat="37.988451" lon="-101.139354">
    </trkpt>
    <trkpt lat="38.017714" lon="-101.139474">
    </trkpt>
    <trkpt lat="38.018135" lon="-100.993221">
    </trkpt>
    <trkpt lat="37.98521" lon="-100.989308">
    </trkpt>
    <trkpt lat="37.96759" lon="-100.829014">
    </trkpt>
    <trkpt lat="37.955462" lon="-100.829036">
    </trkpt>
    <trkpt lat="37.881747" lon="-100.676095">
    </trkpt>
    <trkpt lat="37.857899" lon="-100.683163">
    </trkpt>
    <trkpt lat="37.842381" lon="-100.510461">
    </trkpt>
    <trkpt lat="37.827876" lon="-100.492197">
    </trkpt>
    <trkpt lat="37.805082" lon="-100.348628">
    </trkpt>
    <trkpt lat="37.788222" lon="-100.345119">
    </trkpt>
    <trkpt lat="37.780385" lon="-100.186685">
    </trkpt>
    <trkpt lat="37.7369" lon="-100.178872">
    </trkpt>
    <trkpt lat="37.74221" lon="-100.014795">
    </trkpt>
    <trkpt lat="37.645961" lon="-99.769161">
    </trkpt>
    <trkpt lat="37.646101" lon="-99.753718">
    </trkpt>
    <trkpt lat="37.661839" lon="-99.751568">
    </trkpt>
    <trkpt lat="37.66087" lon="-99.632278">
    </trkpt>
    <trkpt lat="37.689396" lon="-99.61411">
    </trkpt>
    <trkpt lat="37.688958" lon="-99.595752">
    </trkpt>
    <trkpt lat="37.71801" lon="-99.595722">
    </trkpt>
    <trkpt lat="37.717675" lon="-99.577361">
    </trkpt>
    <trkpt lat="37.748893" lon="-99.57798">
    </trkpt>
    <trkpt lat="37.763425" lon="-99.542165">
    </trkpt>
    <trkpt lat="37.806851" lon="-99.542075">
    </trkpt>
    <trkpt lat="37.806945" lon="-99.505405">
    </trkpt>
    <trkpt lat="37.825578" lon="-99.505213">
    </trkpt>
    <trkpt lat="37.825727" lon="-99.478837">
    </trkpt>
    <trkpt lat="37.854818" lon="-99.478241">
    </trkpt>
    <trkpt lat="37.869647" lon="-99.441575">
    </trkpt>
    <trkpt lat="37.898825" lon="-99.441732">
    </trkpt>
    <trkpt lat="37.898904" lon="-99.405181">
    </trkpt>
    <trkpt lat="37.918766" lon="-99.405097">
    </trkpt>
    <trkpt lat="37.942378" lon="-99.357759">
    </trkpt>
    <trkpt lat="37.942194" lon="-99.314011">
    </trkpt>
    <trkpt lat="37.971377" lon="-99.314072">
    </trkpt>
    <trkpt lat="37.971238" lon="-99.295674">
    </trkpt>
    <trkpt lat="38.019755" lon="-99.295569">
    </trkpt>
    <trkpt lat="38.036553" lon="-99.258985">
    </trkpt>
    <trkpt lat="38.089272" lon="-99.223522">
    </trkpt>
    <trkpt lat="38.188694" lon="-99.223604">
    </trkpt>
    <trkpt lat="38.188149" lon="-99.098366">
    </trkpt>
    <trkpt lat="38.203218" lon="-99.098198">
    </trkpt>
    <trkpt lat="38.232494" lon="-99.040673">
    </trkpt>
    <trkpt lat="38.261225" lon="-99.040928">
    </trkpt>
    <trkpt lat="38.261186" lon="-99.013944">
    </trkpt>
    <trkpt lat="38.275703" lon="-99.013874">
    </trkpt>
    <trkpt lat="38.275737" lon="-98.958552">
    </trkpt>
    <trkpt lat="38.304796" lon="-98.940071">
    </trkpt>
    <trkpt lat="38.303469" lon="-98.90338">
    </trkpt>
    <trkpt lat="38.332502" lon="-98.884675">
    </trkpt>
    <trkpt lat="38.33262" lon="-98.847811">
    </trkpt>
    <trkpt lat="38.361658" lon="-98.848203">
    </trkpt>
    <trkpt lat="38.36137" lon="-98.765086">
    </trkpt>
    <trkpt lat="38.449022" lon="-98.756531">
    </trkpt>
    <trkpt lat="38.434832" lon="-98.572751">
    </trkpt>
    <trkpt lat="38.353518" lon="-98.572266">
    </trkpt>
    <trkpt lat="38.347428" lon="-98.549966">
    </trkpt>
    <trkpt lat="38.34789" lon="-97.924407">
    </trkpt>
    <trkpt lat="38.333263" lon="-97.924562">
    </trkpt>
    <trkpt lat="38.333361" lon="-97.777854">
    </trkpt>
    <trkpt lat="38.369537" lon="-97.777486">
    </trkpt>
    <trkpt lat="38.391491" lon="-97.537588">
    </trkpt>
    <trkpt lat="38.449487" lon="-97.537398">
    </trkpt>
    <trkpt lat="38.449362" lon="-97.482218">
    </trkpt>
    <trkpt lat="38.507353" lon="-97.482308">
    </trkpt>
    <trkpt lat="38.507048" lon="-97.445361">
    </trkpt>
    <trkpt lat="38.478259" lon="-97.427165">
    </trkpt>
    <trkpt lat="38.47833" lon="-97.39031">
    </trkpt>
    <trkpt lat="38.49275" lon="-97.39014">
    </trkpt>
    <trkpt lat="38.49334" lon="-97.15104">
    </trkpt>
    <trkpt lat="38.55149" lon="-97.15086">
    </trkpt>
    <trkpt lat="38.55118" lon="-97.05905">
    </trkpt>
    <trkpt lat="38.59469" lon="-97.05926">
    </trkpt>
    <trkpt lat="38.59457" lon="-97.04076">
    </trkpt>
    <trkpt lat="38.66701" lon="-97.04076">
    </trkpt>
    <trkpt lat="38.652566" lon="-96.764455">
    </trkpt>
    <trkpt lat="38.661668" lon="-96.483499">
    </trkpt>
    <trkpt lat="38.612623" lon="-96.409346">
    </trkpt>
    <trkpt lat="38.609697" lon="-96.375103">
    </trkpt>
    <trkpt lat="38.632607" lon="-96.355688">
    </trkpt>
    <trkpt lat="38.643906" lon="-96.3088">
    </trkpt>
    <trkpt lat="38.656344" lon="-96.135517">
    </trkpt>
    <trkpt lat="38.626744" lon="-96.018445">
    </trkpt>
    <trkpt lat="38.64693" lon="-95.929968">
    </trkpt>
    <trkpt lat="38.645878" lon="-95.608374">
    </trkpt>
    <trkpt lat="38.600121" lon="-95.539011">
    </trkpt>
    <trkpt lat="38.602548" lon="-95.419051">
    </trkpt>
    <trkpt lat="38.630437" lon="-95.337256">
    </trkpt>
    <trkpt lat="38.617224" lon="-95.269979">
    </trkpt>
    <trkpt lat="38.918012" lon="-95.260692">
    </trkpt>
    <trkpt lat="38.924553" lon="-95.220626">
    </trkpt>
    <trkpt lat="38.976882" lon="-95.235311">
    </trkpt>
    <trkpt lat="38.965791" lon="-95.184797">
    </trkpt>
    <trkpt lat="38.985915" lon="-95.172481">
    </trkpt>
    <trkpt lat="38.985768" lon="-95.093906">
    </trkpt>
    <trkpt lat="38.941926" lon="-95.09888">
    </trkpt>
    <trkpt lat="38.940143" lon="-95.071769">
    </trkpt>
    <trkpt lat="38.942534" lon="-94.997257">
    </trkpt>
    <trkpt lat="38.978279" lon="-94.958926">
    </trkpt>
    <trkpt lat="38.977992" lon="-94.87225">
    </trkpt>
    <trkpt lat="38.956917" lon="-94.865207">
    </trkpt>
    <trkpt lat="38.956069222286047" lon="-94.799782611143016">
    </trkpt>
    <trkpt lat="38.903134" lon="-94.813036">
    </trkpt>
    <trkpt lat="38.889336" lon="-94.803837">
    </trkpt>
    <trkpt lat="38.902086" lon="-94.734066">
    </trkpt>
    <trkpt lat="38.933932" lon="-94.696241">
    </trkpt>
    <trkpt lat="38.934253" lon="-94.676852">
    </trkpt>
    <trkpt lat="38.941433" lon="-94.673728">
    </trkpt>
    <trkpt lat="38.931134" lon="-94.613898">
    </trkpt>
    <trkpt lat="38.972171" lon="-94.543914">
    </trkpt>
    <trkpt lat="38.963746" lon="-94.452379">
    </trkpt>
    <trkpt lat="38.957448" lon="-94.433188">
    </trkpt>
    <trkpt lat="38.924794" lon="-94.436853">
    </trkpt>
    <trkpt lat="38.908316" lon="-94.414092">
    </trkpt>
    <trkpt lat="38.895107" lon="-94.340198">
    </trkpt>
    <trkpt lat="38.866012" lon="-94.341837">
    </trkpt>
    <trkpt lat="38.865546" lon="-94.304671">
    </trkpt>
    <trkpt lat="38.828693" lon="-94.306572">
    </trkpt>
    <trkpt lat="38.760068" lon="-94.263246">
    </trkpt>
    <trkpt lat="38.684796" lon="-94.108441">
    </trkpt>
    <trkpt lat="38.580057" lon="-93.844954">
    </trkpt>
    <trkpt lat="38.569841" lon="-93.742481">
    </trkpt>
    <trkpt lat="38.580132" lon="-93.676115">
    </trkpt>
    <trkpt lat="38.540618416330467" lon="-93.519728110495578">
    </trkpt>
    <trkpt lat="38.598079" lon="-93.453621">
    </trkpt>
    <trkpt lat="38.751226" lon="-93.138137">
    </trkpt>
    <trkpt lat="38.756606" lon="-93.024398">
    </trkpt>
    <trkpt lat="38.799329" lon="-92.991696">
    </trkpt>
    <trkpt lat="38.808043" lon="-92.959006">
    </trkpt>
    <trkpt lat="38.86913" lon="-92.921876">
    </trkpt>
    <trkpt lat="38.964894" lon="-92.756922">
    </trkpt>
    <trkpt lat="39.012748" lon="-92.7469">
    </trkpt>
    <trkpt lat="39.009363" lon="-92.671347">
    </trkpt>
    <trkpt lat="38.977334" lon="-92.560578">
    </trkpt>
    <trkpt lat="38.879844" lon="-92.437643">
    </trkpt>
    <trkpt lat="38.816285" lon="-92.383041">
    </trkpt>
    <trkpt lat="38.756227" lon="-92.377025">
    </trkpt>
    <trkpt lat="38.712289" lon="-92.336599">
    </trkpt>
    <trkpt lat="38.669521" lon="-92.280365">
    </trkpt>
    <trkpt lat="38.581178" lon="-92.100267">
    </trkpt>
    <trkpt lat="38.59203" lon="-92.019522">
    </trkpt>
    <trkpt lat="38.707514" lon="-91.802698">
    </trkpt>
    <trkpt lat="38.703247" lon="-91.570315">
    </trkpt>
    <trkpt lat="38.735915" lon="-91.409214">
    </trkpt>
    <trkpt lat="38.712418" lon="-91.318253">
    </trkpt>
    <trkpt lat="38.646152" lon="-91.217163">
    </trkpt>
    <trkpt lat="38.627085" lon="-91.060266">
    </trkpt>
    <trkpt lat="38.56478" lon="-90.933462">
    </trkpt>
    <trkpt lat="38.582457" lon="-90.823148">
    </trkpt>
    <trkpt lat="38.656343" lon="-90.756756">
    </trkpt>
    <trkpt lat="38.716447" lon="-90.564296">
    </trkpt>
    <trkpt lat="38.723093" lon="-90.549171">
    </trkpt>
    <trkpt lat="38.728088" lon="-90.543961">
    </trkpt>
    <trkpt lat="38.73001" lon="-90.538373">
    </trkpt>
    <trkpt lat="38.735239" lon="-90.52967">
    </trkpt>
    <trkpt lat="38.736879" lon="-90.526074">
    </trkpt>
    <trkpt lat="38.737877" lon="-90.524151">
    </trkpt>
    <trkpt lat="38.738031" lon="-90.523774">
    </trkpt>
    <trkpt lat="38.738341736967627" lon="-90.523170920642116">
    </trkpt>
    <trkpt lat="38.738504" lon="-90.522856">
    </trkpt>
    <trkpt lat="38.740408" lon="-90.523784">
    </trkpt>
    <trkpt lat="38.68501" lon="-90.491652">
    </trkpt>
    <trkpt lat="38.678025" lon="-90.4691">
    </trkpt>
    <trkpt lat="38.655716" lon="-90.479686">
    </trkpt>
    <trkpt lat="38.628867" lon="-90.178908">
    </trkpt>
  </trkseg>
  <trkseg>
    <trkpt lat="38.024599" lon="-102.044515">
    </trkpt>
    <trkpt lat="38.0246" lon="-102.044516">
    </trkpt>
  </trkseg>
  <trkseg>
    <trkpt lat="38.956069222286047" lon="-94.799782611143016">
    </trkpt>
    <trkpt lat="38.956073" lon="-94.798706">
    </trkpt>
    <trkpt lat="38.956127" lon="-94.797444">
    </trkpt>
    <trkpt lat="38.957275" lon="-94.798113">
    </trkpt>
    <trkpt lat="38.956069222286047" lon="-94.799782611143016">
    </trkpt>
  </trkseg>
  <trkseg>
    <trkpt lat="38.920476" lon="-94.70528339285714">
    </trkpt>
    <trkpt lat="38.920071" lon="-94.705353">
    </trkpt>
    <trkpt lat="38.920087" lon="-94.705793">
    </trkpt>
    <trkpt lat="38.92023" lon="-94.70575">
    </trkpt>
    <trkpt lat="38.920476" lon="-94.70528339285714">
    </trkpt>
  </trkseg>
  <trkseg>
    <trkpt lat="38.938234131302565" lon="-94.675533896825087">
    </trkpt>
    <trkpt lat="38.938403" lon="-94.675539">
    </trkpt>
    <trkpt lat="38.938129" lon="-94.676035">
    </trkpt>
    <trkpt lat="38.938057" lon="-94.675934">
    </trkpt>
    <trkpt lat="38.938234131302565" lon="-94.675533896825087">
    </trkpt>
  </trkseg>
  <trkseg>
    <trkpt lat="38.952371405831649" lon="-94.56355252478231">
    </trkpt>
    <trkpt lat="38.951546" lon="-94.563467">
    </trkpt>
    <trkpt lat="38.951083" lon="-94.563777">
    </trkpt>
    <trkpt lat="38.951425" lon="-94.564067">
    </trkpt>
    <trkpt lat="38.952371405831649" lon="-94.56355252478231">
    </trkpt>
  </trkseg>
  <trkseg>
    <trkpt lat="38.540618416330467" lon="-93.519728110495578">
    </trkpt>
    <trkpt lat="38.538219" lon="-93.518212">
    </trkpt>
    <trkpt lat="38.53857" lon="-93.521861">
    </trkpt>
    <trkpt lat="38.540314" lon="-93.520083">
    </trkpt>
    <trkpt lat="38.540618416330467" lon="-93.519728110495578">
    </trkpt>
  </trkseg>
  <trkseg>
    <trkpt lat="38.628853" lon="-90.178768">
    </trkpt>
    <trkpt lat="38.617405" lon="-90.164307">
    </trkpt>
    <trkpt lat="38.580955" lon="-90.181358">
    </trkpt>
    <trkpt lat="38.543667" lon="-90.204719">
    </trkpt>
    <trkpt lat="38.538963" lon="-90.238991">
    </trkpt>
    <trkpt lat="38.497695" lon="-90.257886">
    </trkpt>
    <trkpt lat="38.476315" lon="-90.248197">
    </trkpt>
    <trkpt lat="38.465797" lon="-90.271717">
    </trkpt>
    <trkpt lat="38.425054" lon="-90.276394">
    </trkpt>
    <trkpt lat="38.370058" lon="-90.33156">
    </trkpt>
    <trkpt lat="38.282255" lon="-90.334761">
    </trkpt>
    <trkpt lat="38.22506" lon="-90.321041">
    </trkpt>
    <trkpt lat="38.202272" lon="-90.299234">
    </trkpt>
    <trkpt lat="38.19216" lon="-90.315519">
    </trkpt>
    <trkpt lat="38.147952" lon="-90.228115">
    </trkpt>
    <trkpt lat="38.122328" lon="-90.208593">
    </trkpt>
    <trkpt lat="38.117732" lon="-90.172893">
    </trkpt>
    <trkpt lat="38.091977" lon="-90.16655">
    </trkpt>
    <trkpt lat="38.071649" lon="-90.129243">
    </trkpt>
    <trkpt lat="38.086884" lon="-90.098379">
    </trkpt>
    <trkpt lat="38.016458" lon="-89.969712">
    </trkpt>
    <trkpt lat="38.017268" lon="-89.90788">
    </trkpt>
    <trkpt lat="37.988543" lon="-89.926134">
    </trkpt>
    <trkpt lat="37.962618" lon="-89.908746">
    </trkpt>
    <trkpt lat="37.898326" lon="-89.826075">
    </trkpt>
    <trkpt lat="37.826893" lon="-89.669301">
    </trkpt>
    <trkpt lat="37.821696" lon="-89.678825">
    </trkpt>
    <trkpt lat="37.764863" lon="-89.657396">
    </trkpt>
    <trkpt lat="37.763512" lon="-89.624765">
    </trkpt>
    <trkpt lat="37.722926" lon="-89.583836">
    </trkpt>
    <trkpt lat="37.709848" lon="-89.478294">
    </trkpt>
    <trkpt lat="37.651185" lon="-89.480668">
    </trkpt>
    <trkpt lat="37.654383" lon="-89.502154">
    </trkpt>
    <trkpt lat="37.639296" lon="-89.510737">
    </trkpt>
    <trkpt lat="37.617539" lon="-89.495752">
    </trkpt>
    <trkpt lat="37.580757" lon="-89.505442">
    </trkpt>
    <trkpt lat="37.560834" lon="-89.471156">
    </trkpt>
    <trkpt lat="37.590709" lon="-89.43953">
    </trkpt>
    <trkpt lat="37.561446" lon="-89.400345">
    </trkpt>
    <trkpt lat="37.569697" lon="-89.317804">
    </trkpt>
    <trkpt lat="37.612875" lon="-89.294391">
    </trkpt>
    <trkpt lat="37.60356" lon="-89.261958">
    </trkpt>
    <trkpt lat="37.622746" lon="-89.242863">
    </trkpt>
    <trkpt lat="37.609609" lon="-89.233699">
    </trkpt>
    <trkpt lat="37.617665" lon="-89.209187">
    </trkpt>
    <trkpt lat="37.59031" lon="-89.184568">
    </trkpt>
    <trkpt lat="37.60351" lon="-89.145034">
    </trkpt>
    <trkpt lat="37.582937" lon="-89.089337">
    </trkpt>
    <trkpt lat="37.594504" lon="-89.085264">
    </trkpt>
    <trkpt lat="37.585208" lon="-89.069628">
    </trkpt>
    <trkpt lat="37.5683" lon="-89.076211">
    </trkpt>
    <trkpt lat="37.556491" lon="-89.020306">
    </trkpt>
    <trkpt lat="37.536079" lon="-89.02123">
    </trkpt>
    <trkpt lat="37.531132" lon="-88.997677">
    </trkpt>
    <trkpt lat="37.54787" lon="-88.991696">
    </trkpt>
    <trkpt lat="37.550881" lon="-88.985343">
    </trkpt>
    <trkpt lat="37.549093" lon="-88.98002">
    </trkpt>
    <trkpt lat="37.520312" lon="-89.002112">
    </trkpt>
    <trkpt lat="37.532628" lon="-88.986987">
    </trkpt>
    <trkpt lat="37.524601" lon="-88.965459">
    </trkpt>
    <trkpt lat="37.481012" lon="-88.944668">
    </trkpt>
    <trkpt lat="37.497136" lon="-88.868515">
    </trkpt>
    <trkpt lat="37.494259" lon="-88.841917">
    </trkpt>
    <trkpt lat="37.479797" lon="-88.849078">
    </trkpt>
    <trkpt lat="37.481684" lon="-88.810337">
    </trkpt>
    <trkpt lat="37.510159" lon="-88.784757">
    </trkpt>
    <trkpt lat="37.49281" lon="-88.769109">
    </trkpt>
    <trkpt lat="37.500288" lon="-88.710952">
    </trkpt>
    <trkpt lat="37.480267" lon="-88.666698">
    </trkpt>
    <trkpt lat="37.503211" lon="-88.626426">
    </trkpt>
    <trkpt lat="37.493997" lon="-88.604058">
    </trkpt>
    <trkpt lat="37.505855" lon="-88.575982">
    </trkpt>
    <trkpt lat="37.533489" lon="-88.569592">
    </trkpt>
    <trkpt lat="37.52263" lon="-88.514172">
    </trkpt>
    <trkpt lat="37.546976" lon="-88.492724">
    </trkpt>
    <trkpt lat="37.503834" lon="-88.474631">
    </trkpt>
    <trkpt lat="37.550689" lon="-88.442702">
    </trkpt>
    <trkpt lat="37.567654" lon="-88.451801">
    </trkpt>
    <trkpt lat="37.601535" lon="-88.41329">
    </trkpt>
    <trkpt lat="37.590553" lon="-88.284074">
    </trkpt>
    <trkpt lat="37.627515" lon="-88.241631">
    </trkpt>
    <trkpt lat="37.639083" lon="-88.255328">
    </trkpt>
    <trkpt lat="37.669725" lon="-88.232929">
    </trkpt>
    <trkpt lat="37.687379" lon="-88.165278">
    </trkpt>
    <trkpt lat="37.70043" lon="-88.184058">
    </trkpt>
    <trkpt lat="37.777061" lon="-88.193184">
    </trkpt>
    <trkpt lat="37.81167" lon="-88.191938">
    </trkpt>
    <trkpt lat="37.816226" lon="-88.169718">
    </trkpt>
    <trkpt lat="37.892004" lon="-88.172736">
    </trkpt>
    <trkpt lat="37.943904" lon="-88.036193">
    </trkpt>
  </trkseg>
  <trkseg>
    <trkpt lat="37.53124711062673" lon="-89.002189749453265">
    </trkpt>
    <trkpt lat="37.531236" lon="-89.002191">
    </trkpt>
    <trkpt lat="37.531246" lon="-89.002194">
    </trkpt>
    <trkpt lat="37.53124711062673" lon="-89.002189749453265">
    </trkpt>
  </trkseg>
  <trkseg>
    <trkpt lat="37.944067" lon="-88.030736">
    </trkpt>
    <trkpt lat="37.921582" lon="-88.000736">
    </trkpt>
    <trkpt lat="37.932994" lon="-87.883973">
    </trkpt>
    <trkpt lat="37.922701" lon="-87.738872">
    </trkpt>
    <trkpt lat="37.949674" lon="-87.672453">
    </trkpt>
    <trkpt lat="37.943493" lon="-87.625616">
    </trkpt>
    <trkpt lat="37.980661" lon="-87.600579">
    </trkpt>
    <trkpt lat="37.948154" lon="-87.538094">
    </trkpt>
    <trkpt lat="37.939329" lon="-87.293919">
    </trkpt>
    <trkpt lat="37.980831" lon="-87.257467">
    </trkpt>
    <trkpt lat="38.033752" lon="-87.256244">
    </trkpt>
    <trkpt lat="38.055082" lon="-87.27291">
    </trkpt>
    <trkpt lat="38.126473" lon="-87.201651">
    </trkpt>
    <trkpt lat="38.114849" lon="-86.835997">
    </trkpt>
    <trkpt lat="38.168569" lon="-86.807929">
    </trkpt>
    <trkpt lat="38.1690714" lon="-86.7714462">
    </trkpt>
    <trkpt lat="38.1916307" lon="-86.7713469">
    </trkpt>
    <trkpt lat="38.200778" lon="-86.722153">
    </trkpt>
    <trkpt lat="38.18828" lon="-86.6901043">
    </trkpt>
    <trkpt lat="38.225275" lon="-86.660732">
    </trkpt>
    <trkpt lat="38.1909056" lon="-86.6568414">
    </trkpt>
    <trkpt lat="38.1856436" lon="-86.636011300000021">
    </trkpt>
    <trkpt lat="38.1321773" lon="-86.6373689">
    </trkpt>
    <trkpt lat="38.1361639" lon="-86.623840700000017">
    </trkpt>
    <trkpt lat="38.1244036" lon="-86.6457758">
    </trkpt>
    <trkpt lat="38.087677" lon="-86.634596">
    </trkpt>
    <trkpt lat="38.0879082" lon="-86.6147977">
    </trkpt>
    <trkpt lat="38.0683475" lon="-86.6050161">
    </trkpt>
    <trkpt lat="38.0614527" lon="-86.5261672">
    </trkpt>
    <trkpt lat="38.041867" lon="-86.521563">
    </trkpt>
    <trkpt lat="38.059119" lon="-86.469239">
    </trkpt>
    <trkpt lat="38.083479" lon="-86.456274">
    </trkpt>
    <trkpt lat="38.125935" lon="-86.469701">
    </trkpt>
    <trkpt lat="38.120421" lon="-86.395316">
    </trkpt>
    <trkpt lat="38.140242" lon="-86.371248">
    </trkpt>
    <trkpt lat="38.158791" lon="-86.361445">
    </trkpt>
    <trkpt lat="38.175489" lon="-86.383128">
    </trkpt>
    <trkpt lat="38.206517" lon="-86.372368">
    </trkpt>
    <trkpt lat="38.192309" lon="-86.316475">
    </trkpt>
    <trkpt lat="38.225573" lon="-86.29106">
    </trkpt>
    <trkpt lat="38.228588" lon="-86.249494">
    </trkpt>
    <trkpt lat="38.197581" lon="-86.308458">
    </trkpt>
    <trkpt lat="38.189927" lon="-86.294488">
    </trkpt>
    <trkpt lat="38.174299" lon="-86.305693">
    </trkpt>
    <trkpt lat="38.160237" lon="-86.271955">
    </trkpt>
    <trkpt lat="38.137785" lon="-86.261867">
    </trkpt>
    <trkpt lat="38.159267" lon="-86.238208">
    </trkpt>
    <trkpt lat="38.196273" lon="-86.234115">
    </trkpt>
    <trkpt lat="38.220129" lon="-86.145666">
    </trkpt>
    <trkpt lat="38.148657" lon="-86.025007">
    </trkpt>
    <trkpt lat="38.149127" lon="-85.991187">
    </trkpt>
    <trkpt lat="38.171176" lon="-85.972989">
    </trkpt>
    <trkpt lat="38.169046" lon="-85.90925">
    </trkpt>
    <trkpt lat="38.224877" lon="-85.858468">
    </trkpt>
    <trkpt lat="38.268221" lon="-85.844726">
    </trkpt>
    <trkpt lat="38.289583" lon="-85.804481">
    </trkpt>
    <trkpt lat="38.311184" lon="-85.821359">
    </trkpt>
    <trkpt lat="38.441735" lon="-85.809074">
    </trkpt>
    <trkpt lat="38.463037962259754" lon="-85.853708446398585">
    </trkpt>
    <trkpt lat="38.491029" lon="-85.847148">
    </trkpt>
    <trkpt lat="38.510027" lon="-85.868582">
    </trkpt>
    <trkpt lat="38.528565" lon="-85.842481">
    </trkpt>
    <trkpt lat="38.567721" lon="-85.826926">
    </trkpt>
    <trkpt lat="38.552893" lon="-85.766432">
    </trkpt>
    <trkpt lat="38.619969" lon="-85.775191">
    </trkpt>
    <trkpt lat="38.610707" lon="-85.711675">
    </trkpt>
    <trkpt lat="38.650167" lon="-85.657067">
    </trkpt>
    <trkpt lat="38.662354" lon="-85.444465">
    </trkpt>
    <trkpt lat="38.694877" lon="-85.46341">
    </trkpt>
    <trkpt lat="38.71014" lon="-85.455684">
    </trkpt>
    <trkpt lat="38.714211" lon="-85.473655">
    </trkpt>
    <trkpt lat="38.767387" lon="-85.456898">
    </trkpt>
    <trkpt lat="38.769871" lon="-85.433806">
    </trkpt>
    <trkpt lat="38.7348902" lon="-85.3911346">
    </trkpt>
    <trkpt lat="38.73624" lon="-85.338705">
    </trkpt>
    <trkpt lat="38.757858" lon="-85.332681">
    </trkpt>
    <trkpt lat="38.788006" lon="-85.282182">
    </trkpt>
    <trkpt lat="38.841007" lon="-85.351116">
    </trkpt>
    <trkpt lat="38.862199" lon="-85.332074">
    </trkpt>
    <trkpt lat="38.8762764" lon="-85.254248200000021">
    </trkpt>
    <trkpt lat="38.922588" lon="-85.202763">
    </trkpt>
    <trkpt lat="38.957565" lon="-85.208598">
    </trkpt>
    <trkpt lat="38.976627" lon="-85.102381">
    </trkpt>
    <trkpt lat="38.94443" lon="-85.09168">
    </trkpt>
    <trkpt lat="38.994055" lon="-84.991577">
    </trkpt>
    <trkpt lat="39.012678" lon="-84.896329">
    </trkpt>
    <trkpt lat="39.021607" lon="-84.882566">
    </trkpt>
    <trkpt lat="39.0615243" lon="-84.8977409">
    </trkpt>
    <trkpt lat="39.0869551" lon="-84.8533826">
    </trkpt>
    <trkpt lat="39.1250204" lon="-84.8528894">
    </trkpt>
    <trkpt lat="39.162125" lon="-84.812098">
    </trkpt>
    <trkpt lat="39.130906" lon="-84.778508">
    </trkpt>
    <trkpt lat="39.151714" lon="-84.753918">
    </trkpt>
    <trkpt lat="39.136806" lon="-84.7082">
    </trkpt>
    <trkpt lat="39.103517" lon="-84.681315">
    </trkpt>
    <trkpt lat="39.069469" lon="-84.604922">
    </trkpt>
    <trkpt lat="39.088049" lon="-84.557055">
    </trkpt>
    <trkpt lat="39.085133" lon="-84.507215">
    </trkpt>
    <trkpt lat="39.107263" lon="-84.505421">
    </trkpt>
    <trkpt lat="39.1405643" lon="-84.4509648">
    </trkpt>
    <trkpt lat="39.1501877" lon="-84.4038986">
    </trkpt>
    <trkpt lat="39.137196" lon="-84.3466267">
    </trkpt>
    <trkpt lat="39.171349" lon="-84.293991">
    </trkpt>
    <trkpt lat="39.1548071" lon="-84.288528">
    </trkpt>
    <trkpt lat="39.119207" lon="-84.209671">
    </trkpt>
    <trkpt lat="39.101185" lon="-84.219139">
    </trkpt>
    <trkpt lat="39.07801" lon="-84.17868">
    </trkpt>
    <trkpt lat="39.032558" lon="-84.156922">
    </trkpt>
    <trkpt lat="39.0369348" lon="-84.1447919">
    </trkpt>
    <trkpt lat="39.018189" lon="-84.16507">
    </trkpt>
    <trkpt lat="39.004049" lon="-84.1493216">
    </trkpt>
    <trkpt lat="39.017372" lon="-84.140474">
    </trkpt>
    <trkpt lat="39.012567" lon="-84.104815">
    </trkpt>
    <trkpt lat="38.9897082" lon="-84.1035985">
    </trkpt>
    <trkpt lat="39.0003226" lon="-84.0935829">
    </trkpt>
    <trkpt lat="38.9908691" lon="-84.0708943">
    </trkpt>
    <trkpt lat="39.0078214" lon="-84.0934219">
    </trkpt>
    <trkpt lat="39.0242092" lon="-84.08546">
    </trkpt>
    <trkpt lat="39.044682" lon="-84.043152">
    </trkpt>
    <trkpt lat="39.0146132" lon="-83.9854036">
    </trkpt>
    <trkpt lat="39.0193879" lon="-83.9515946">
    </trkpt>
    <trkpt lat="38.994261" lon="-83.9338216">
    </trkpt>
    <trkpt lat="39.002051" lon="-83.88659">
    </trkpt>
    <trkpt lat="38.953439" lon="-83.913638">
    </trkpt>
    <trkpt lat="38.934816" lon="-83.850648">
    </trkpt>
    <trkpt lat="38.85874" lon="-83.849141">
    </trkpt>
    <trkpt lat="38.886188" lon="-83.813331">
    </trkpt>
    <trkpt lat="38.881745" lon="-83.79212">
    </trkpt>
    <trkpt lat="38.849574" lon="-83.786983">
    </trkpt>
    <trkpt lat="38.839378" lon="-83.758674">
    </trkpt>
    <trkpt lat="38.799056" lon="-83.763048">
    </trkpt>
    <trkpt lat="38.757558" lon="-83.69737">
    </trkpt>
    <trkpt lat="38.743567" lon="-83.642487">
    </trkpt>
    <trkpt lat="38.752875" lon="-83.62247">
    </trkpt>
    <trkpt lat="38.71595" lon="-83.56563">
    </trkpt>
    <trkpt lat="38.727869" lon="-83.517607">
    </trkpt>
    <trkpt lat="38.749938" lon="-83.515434">
    </trkpt>
    <trkpt lat="38.737867" lon="-83.466812">
    </trkpt>
    <trkpt lat="38.74964" lon="-83.46327">
    </trkpt>
    <trkpt lat="38.75204" lon="-83.44447">
    </trkpt>
    <trkpt lat="38.7225" lon="-83.41564">
    </trkpt>
    <trkpt lat="38.734027" lon="-83.351653">
    </trkpt>
    <trkpt lat="38.712931" lon="-83.323702">
    </trkpt>
    <trkpt lat="38.716024" lon="-83.290118">
    </trkpt>
    <trkpt lat="38.688308" lon="-83.281101">
    </trkpt>
    <trkpt lat="38.705678" lon="-83.233823">
    </trkpt>
    <trkpt lat="38.726324" lon="-83.250393">
    </trkpt>
    <trkpt lat="38.73791" lon="-83.198449">
    </trkpt>
    <trkpt lat="38.793231" lon="-83.191427">
    </trkpt>
    <trkpt lat="38.785195" lon="-83.221885">
    </trkpt>
    <trkpt lat="38.806384" lon="-83.246225">
    </trkpt>
    <trkpt lat="38.834571" lon="-83.2374">
    </trkpt>
    <trkpt lat="38.811289" lon="-83.269179">
    </trkpt>
    <trkpt lat="38.836504" lon="-83.278879">
    </trkpt>
    <trkpt lat="38.861472" lon="-83.324556">
    </trkpt>
    <trkpt lat="38.898234" lon="-83.323643">
    </trkpt>
    <trkpt lat="38.910578" lon="-83.337185">
    </trkpt>
    <trkpt lat="38.900478" lon="-83.344794">
    </trkpt>
    <trkpt lat="38.92722" lon="-83.365604">
    </trkpt>
    <trkpt lat="38.939973" lon="-83.35641">
    </trkpt>
    <trkpt lat="38.934936" lon="-83.325661">
    </trkpt>
    <trkpt lat="38.957736" lon="-83.340393">
    </trkpt>
    <trkpt lat="38.949511" lon="-83.411776">
    </trkpt>
    <trkpt lat="38.96997" lon="-83.429276">
    </trkpt>
    <trkpt lat="38.971792" lon="-83.467976">
    </trkpt>
    <trkpt lat="39.002619" lon="-83.456275">
    </trkpt>
  </trkseg>
  <trkseg>
    <trkpt lat="38.463037962259754" lon="-85.853708446398585">
    </trkpt>
    <trkpt lat="38.463039" lon="-85.853742">
    </trkpt>
    <trkpt lat="38.463033" lon="-85.853707">
    </trkpt>
    <trkpt lat="38.463037962259754" lon="-85.853708446398585">
    </trkpt>
  </trkseg>
  <trkseg>
    <trkpt lat="38.746242" lon="-83.458186">
    </trkpt>
    <trkpt lat="38.74623" lon="-83.45819">
    </trkpt>
    <trkpt lat="38.74623" lon="-83.45818">
    </trkpt>
    <trkpt lat="38.746242" lon="-83.458186">
    </trkpt>
  </trkseg>
  <trkseg>
    <trkpt lat="39.002617" lon="-83.456277">
    </trkpt>
    <trkpt lat="39.027124" lon="-83.453711">
    </trkpt>
    <trkpt lat="39.021844" lon="-83.42475">
    </trkpt>
    <trkpt lat="39.051534" lon="-83.412437">
    </trkpt>
    <trkpt lat="39.057116" lon="-83.370503">
    </trkpt>
    <trkpt lat="39.110446" lon="-83.414126">
    </trkpt>
    <trkpt lat="39.123838" lon="-83.40334">
    </trkpt>
    <trkpt lat="39.099494" lon="-83.332452">
    </trkpt>
    <trkpt lat="39.112944" lon="-83.298781">
    </trkpt>
    <trkpt lat="39.100523" lon="-83.256649">
    </trkpt>
    <trkpt lat="39.129573" lon="-83.238594">
    </trkpt>
    <trkpt lat="39.129273" lon="-83.215197">
    </trkpt>
    <trkpt lat="39.147635" lon="-83.227087">
    </trkpt>
    <trkpt lat="39.14945" lon="-83.214997">
    </trkpt>
    <trkpt lat="39.153037" lon="-83.214351">
    </trkpt>
    <trkpt lat="39.157827" lon="-83.220496">
    </trkpt>
    <trkpt lat="39.158621" lon="-83.221288">
    </trkpt>
    <trkpt lat="39.158898" lon="-83.221411">
    </trkpt>
    <trkpt lat="39.159401" lon="-83.221396">
    </trkpt>
    <trkpt lat="39.15392" lon="-83.196701">
    </trkpt>
    <trkpt lat="39.169837" lon="-83.198543">
    </trkpt>
    <trkpt lat="39.191241" lon="-83.149466">
    </trkpt>
    <trkpt lat="39.174702" lon="-83.088733">
    </trkpt>
    <trkpt lat="39.193106" lon="-83.054889">
    </trkpt>
    <trkpt lat="39.162524" lon="-82.998225">
    </trkpt>
    <trkpt lat="39.195947" lon="-82.949357">
    </trkpt>
    <trkpt lat="39.20684" lon="-82.94319">
    </trkpt>
    <trkpt lat="39.216775" lon="-82.959214">
    </trkpt>
    <trkpt lat="39.230252" lon="-82.938562">
    </trkpt>
    <trkpt lat="39.207454" lon="-82.865199">
    </trkpt>
    <trkpt lat="39.221827" lon="-82.832843">
    </trkpt>
    <trkpt lat="39.236149" lon="-82.833494">
    </trkpt>
    <trkpt lat="39.251671" lon="-82.802659">
    </trkpt>
    <trkpt lat="39.26933" lon="-82.806674">
    </trkpt>
    <trkpt lat="39.27515" lon="-82.78519">
    </trkpt>
    <trkpt lat="39.329005" lon="-82.798584">
    </trkpt>
    <trkpt lat="39.350654" lon="-82.766139">
    </trkpt>
    <trkpt lat="39.378709" lon="-82.758358">
    </trkpt>
    <trkpt lat="39.33084" lon="-82.691351">
    </trkpt>
    <trkpt lat="39.35925" lon="-82.650055">
    </trkpt>
    <trkpt lat="39.349253" lon="-82.615731">
    </trkpt>
    <trkpt lat="39.38986" lon="-82.594812">
    </trkpt>
    <trkpt lat="39.384847" lon="-82.560638">
    </trkpt>
    <trkpt lat="39.4057187" lon="-82.5309403">
    </trkpt>
    <trkpt lat="39.418346" lon="-82.526779">
    </trkpt>
    <trkpt lat="39.423644" lon="-82.545925">
    </trkpt>
    <trkpt lat="39.438148" lon="-82.53896">
    </trkpt>
    <trkpt lat="39.452631" lon="-82.560334">
    </trkpt>
    <trkpt lat="39.481734" lon="-82.528567">
    </trkpt>
    <trkpt lat="39.513446" lon="-82.542673">
    </trkpt>
    <trkpt lat="39.549037" lon="-82.475658">
    </trkpt>
    <trkpt lat="39.558026" lon="-82.497165">
    </trkpt>
    <trkpt lat="39.592853" lon="-82.450535">
    </trkpt>
    <trkpt lat="39.591239" lon="-82.470108">
    </trkpt>
    <trkpt lat="39.613139" lon="-82.471659">
    </trkpt>
    <trkpt lat="39.629713" lon="-82.420461">
    </trkpt>
  </trkseg>
  <trkseg>
    <trkpt lat="38.716077340079295" lon="-83.331834749663855">
    </trkpt>
    <trkpt lat="38.716077" lon="-83.331834">
    </trkpt>
    <trkpt lat="38.716077" lon="-83.331835">
    </trkpt>
    <trkpt lat="38.716077340079295" lon="-83.331834749663855">
    </trkpt>
  </trkseg>
  <trkseg>
    <trkpt lat="39.629711" lon="-82.420462">
    </trkpt>
    <trkpt lat="39.614883" lon="-82.398448">
    </trkpt>
    <trkpt lat="39.637221" lon="-82.388925">
    </trkpt>
    <trkpt lat="39.63801" lon="-82.363169">
    </trkpt>
    <trkpt lat="39.598277" lon="-82.301644">
    </trkpt>
    <trkpt lat="39.616739" lon="-82.26374">
    </trkpt>
    <trkpt lat="39.598796" lon="-82.211914">
    </trkpt>
    <trkpt lat="39.569436" lon="-82.206833">
    </trkpt>
    <trkpt lat="39.543471" lon="-82.169228">
    </trkpt>
    <trkpt lat="39.513169" lon="-82.164365">
    </trkpt>
    <trkpt lat="39.530879" lon="-82.150638">
    </trkpt>
    <trkpt lat="39.532692" lon="-82.093898">
    </trkpt>
    <trkpt lat="39.551925" lon="-82.075399">
    </trkpt>
    <trkpt lat="39.518369" lon="-82.047749">
    </trkpt>
    <trkpt lat="39.519844" lon="-82.038535">
    </trkpt>
    <trkpt lat="39.557855" lon="-82.01936">
    </trkpt>
    <trkpt lat="39.572215" lon="-82.032653">
    </trkpt>
    <trkpt lat="39.582545" lon="-81.990759">
    </trkpt>
    <trkpt lat="39.551384" lon="-81.975261">
    </trkpt>
    <trkpt lat="39.542835" lon="-81.914786">
    </trkpt>
    <trkpt lat="39.523014" lon="-81.909381">
    </trkpt>
    <trkpt lat="39.521455" lon="-81.891388">
    </trkpt>
    <trkpt lat="39.502066" lon="-81.899979">
    </trkpt>
    <trkpt lat="39.50612" lon="-81.875008">
    </trkpt>
    <trkpt lat="39.451491" lon="-81.797473">
    </trkpt>
    <trkpt lat="39.461661" lon="-81.75311">
    </trkpt>
    <trkpt lat="39.440485" lon="-81.727686">
    </trkpt>
    <trkpt lat="39.401156" lon="-81.723488">
    </trkpt>
    <trkpt lat="39.373301" lon="-81.653497">
    </trkpt>
    <trkpt lat="39.347124" lon="-81.657422">
    </trkpt>
    <trkpt lat="39.335126" lon="-81.633789">
    </trkpt>
    <trkpt lat="39.303984" lon="-81.634599">
    </trkpt>
    <trkpt lat="39.308217" lon="-81.62291">
    </trkpt>
    <trkpt lat="39.281511" lon="-81.611019">
    </trkpt>
    <trkpt lat="39.25836" lon="-81.531807">
    </trkpt>
    <trkpt lat="39.232239" lon="-81.507446">
    </trkpt>
    <trkpt lat="39.205684" lon="-81.508566">
    </trkpt>
    <trkpt lat="39.192626" lon="-81.447994">
    </trkpt>
    <trkpt lat="39.168852" lon="-81.420479">
    </trkpt>
    <trkpt lat="39.201384" lon="-81.332001">
    </trkpt>
    <trkpt lat="39.18412" lon="-81.290005">
    </trkpt>
    <trkpt lat="39.208184" lon="-81.202663">
    </trkpt>
    <trkpt lat="39.201551" lon="-81.168699">
    </trkpt>
    <trkpt lat="39.282819" lon="-81.02174">
    </trkpt>
    <trkpt lat="39.269147" lon="-80.918475">
    </trkpt>
    <trkpt lat="39.300034" lon="-80.749945">
    </trkpt>
    <trkpt lat="39.270926" lon="-80.656507">
    </trkpt>
    <trkpt lat="39.294149" lon="-80.510588">
    </trkpt>
    <trkpt lat="39.276017" lon="-80.442742">
    </trkpt>
    <trkpt lat="39.294263" lon="-80.362894">
    </trkpt>
    <trkpt lat="39.284665" lon="-80.355758">
    </trkpt>
    <trkpt lat="39.28582" lon="-80.346557">
    </trkpt>
    <trkpt lat="39.310616" lon="-80.350034">
    </trkpt>
    <trkpt lat="39.313364" lon="-80.31658">
    </trkpt>
    <trkpt lat="39.289969" lon="-80.305456">
    </trkpt>
    <trkpt lat="39.309226" lon="-80.277">
    </trkpt>
    <trkpt lat="39.283157" lon="-80.256135">
    </trkpt>
    <trkpt lat="39.322446" lon="-80.203836">
    </trkpt>
    <trkpt lat="39.352752" lon="-80.198634">
    </trkpt>
    <trkpt lat="39.348199" lon="-80.17175">
    </trkpt>
    <trkpt lat="39.370274" lon="-80.154839">
    </trkpt>
    <trkpt lat="39.347052" lon="-80.10854">
    </trkpt>
    <trkpt lat="39.36101" lon="-80.087167">
    </trkpt>
    <trkpt lat="39.353027" lon="-80.042396">
    </trkpt>
    <trkpt lat="39.339956" lon="-80.042069">
    </trkpt>
    <trkpt lat="39.337869" lon="-80.021406">
    </trkpt>
    <trkpt lat="39.30537" lon="-80.0238">
    </trkpt>
    <trkpt lat="39.311297" lon="-79.965575">
    </trkpt>
    <trkpt lat="39.293822" lon="-79.932539">
    </trkpt>
    <trkpt lat="39.233956" lon="-79.911636">
    </trkpt>
    <trkpt lat="39.210366" lon="-79.932735">
    </trkpt>
    <trkpt lat="39.200054" lon="-80.01726">
    </trkpt>
    <trkpt lat="39.164834" lon="-80.022808">
    </trkpt>
    <trkpt lat="39.153266" lon="-80.041282">
    </trkpt>
    <trkpt lat="39.129833" lon="-80.009658">
    </trkpt>
    <trkpt lat="39.1864335" lon="-79.9067783">
    </trkpt>
    <trkpt lat="39.1980192" lon="-79.8399703">
    </trkpt>
    <trkpt lat="39.186637" lon="-79.8154389">
    </trkpt>
    <trkpt lat="39.159538" lon="-79.823375">
    </trkpt>
    <trkpt lat="39.165328" lon="-79.810264">
    </trkpt>
    <trkpt lat="39.146952" lon="-79.80903">
    </trkpt>
    <trkpt lat="39.122186" lon="-79.773301">
    </trkpt>
    <trkpt lat="39.122921" lon="-79.722363">
    </trkpt>
    <trkpt lat="39.070968" lon="-79.614907">
    </trkpt>
    <trkpt lat="39.038459" lon="-79.594665">
    </trkpt>
    <trkpt lat="39.0635758" lon="-79.521605">
    </trkpt>
    <trkpt lat="39.089524" lon="-79.544674">
    </trkpt>
    <trkpt lat="39.1074166" lon="-79.4859212">
    </trkpt>
    <trkpt lat="39.07609" lon="-79.4679438">
    </trkpt>
    <trkpt lat="39.053902" lon="-79.485799">
    </trkpt>
    <trkpt lat="39.016398" lon="-79.469572">
    </trkpt>
    <trkpt lat="39.01301" lon="-79.446787">
    </trkpt>
    <trkpt lat="39.0378938" lon="-79.381952">
    </trkpt>
    <trkpt lat="39.0335372" lon="-79.31432580000002">
    </trkpt>
    <trkpt lat="39.06607" lon="-79.3014875">
    </trkpt>
    <trkpt lat="39.0497884" lon="-79.296074">
    </trkpt>
    <trkpt lat="39.082644" lon="-79.232349">
    </trkpt>
    <trkpt lat="39.103984" lon="-79.231363">
    </trkpt>
    <trkpt lat="39.190194" lon="-79.155707">
    </trkpt>
    <trkpt lat="39.181801" lon="-79.108948">
    </trkpt>
    <trkpt lat="39.291029" lon="-79.052118">
    </trkpt>
    <trkpt lat="39.504139" lon="-78.866236">
    </trkpt>
    <trkpt lat="39.522082" lon="-78.798539">
    </trkpt>
    <trkpt lat="39.50313" lon="-78.768597">
    </trkpt>
    <trkpt lat="39.514331" lon="-78.755242">
    </trkpt>
    <trkpt lat="39.490735" lon="-78.658488">
    </trkpt>
    <trkpt lat="39.537173" lon="-78.613368">
    </trkpt>
  </trkseg>
  <trkseg>
    <trkpt lat="39.537173" lon="-78.613377">
    </trkpt>
    <trkpt lat="39.537762" lon="-78.59086">
    </trkpt>
    <trkpt lat="39.524469" lon="-78.564467">
    </trkpt>
    <trkpt lat="39.520414" lon="-78.466519">
    </trkpt>
    <trkpt lat="39.587884" lon="-78.458032">
    </trkpt>
    <trkpt lat="39.584839" lon="-78.397376">
    </trkpt>
    <trkpt lat="39.623586" lon="-78.431527">
    </trkpt>
    <trkpt lat="39.609357" lon="-78.377354">
    </trkpt>
    <trkpt lat="39.625795" lon="-78.386243">
    </trkpt>
    <trkpt lat="39.627509" lon="-78.356577">
    </trkpt>
    <trkpt lat="39.641751" lon="-78.353147">
    </trkpt>
    <trkpt lat="39.62042" lon="-78.266824">
    </trkpt>
    <trkpt lat="39.660194" lon="-78.226375">
    </trkpt>
    <trkpt lat="39.674397" lon="-78.23321">
    </trkpt>
    <trkpt lat="39.697997" lon="-78.182559">
    </trkpt>
    <trkpt lat="39.667854" lon="-78.070959">
    </trkpt>
    <trkpt lat="39.604424" lon="-78.002491">
    </trkpt>
    <trkpt lat="39.620543" lon="-77.938099">
    </trkpt>
    <trkpt lat="39.599219" lon="-77.886449">
    </trkpt>
    <trkpt lat="39.617007" lon="-77.885416">
    </trkpt>
    <trkpt lat="39.608751" lon="-77.836993">
    </trkpt>
    <trkpt lat="39.594964" lon="-77.825377">
    </trkpt>
    <trkpt lat="39.566532" lon="-77.833477">
    </trkpt>
    <trkpt lat="39.554812" lon="-77.884727">
    </trkpt>
    <trkpt lat="39.539595" lon="-77.863519">
    </trkpt>
    <trkpt lat="39.51621" lon="-77.861162">
    </trkpt>
    <trkpt lat="39.529239" lon="-77.823321">
    </trkpt>
    <trkpt lat="39.499555" lon="-77.843972">
    </trkpt>
    <trkpt lat="39.496132" lon="-77.764124">
    </trkpt>
    <trkpt lat="39.478146" lon="-77.796233">
    </trkpt>
    <trkpt lat="39.461527" lon="-77.775724">
    </trkpt>
    <trkpt lat="39.459263" lon="-77.796507">
    </trkpt>
    <trkpt lat="39.445648" lon="-77.782949">
    </trkpt>
    <trkpt lat="39.43748" lon="-77.800592">
    </trkpt>
    <trkpt lat="39.427795" lon="-77.756013">
    </trkpt>
    <trkpt lat="39.402272" lon="-77.736788">
    </trkpt>
    <trkpt lat="39.337953" lon="-77.755829">
    </trkpt>
    <trkpt lat="39.308942" lon="-77.561339">
    </trkpt>
    <trkpt lat="39.274436" lon="-77.544177">
    </trkpt>
    <trkpt lat="39.222253" lon="-77.451156">
    </trkpt>
    <trkpt lat="39.187782" lon="-77.473765">
    </trkpt>
    <trkpt lat="39.167395" lon="-77.51437">
    </trkpt>
    <trkpt lat="39.124163" lon="-77.512417">
    </trkpt>
    <trkpt lat="39.080318" lon="-77.446003">
    </trkpt>
    <trkpt lat="39.067799" lon="-77.330949">
    </trkpt>
    <trkpt lat="39.036943" lon="-77.251222">
    </trkpt>
    <trkpt lat="39.022673" lon="-77.237471">
    </trkpt>
    <trkpt lat="38.98523" lon="-77.240689">
    </trkpt>
    <trkpt lat="38.969369" lon="-77.144662">
    </trkpt>
    <trkpt lat="38.909089" lon="-77.093273">
    </trkpt>
    <trkpt lat="38.887699" lon="-77.008379">
    </trkpt>
    <trkpt lat="38.867939" lon="-77.003101">
    </trkpt>
    <trkpt lat="38.883563" lon="-76.965027">
    </trkpt>
    <trkpt lat="38.923846" lon="-76.934931">
    </trkpt>
    <trkpt lat="38.943842" lon="-76.94531">
    </trkpt>
    <trkpt lat="38.976241" lon="-76.921367">
    </trkpt>
    <trkpt lat="38.978966" lon="-76.895674">
    </trkpt>
    <trkpt lat="38.997892" lon="-76.886138">
    </trkpt>
    <trkpt lat="39.031222" lon="-76.899514">
    </trkpt>
    <trkpt lat="39.033386" lon="-76.841273">
    </trkpt>
    <trkpt lat="39.005198" lon="-76.807423">
    </trkpt>
    <trkpt lat="39.010711" lon="-76.781885">
    </trkpt>
    <trkpt lat="38.989589" lon="-76.774583">
    </trkpt>
    <trkpt lat="38.991455" lon="-76.771538">
    </trkpt>
    <trkpt lat="38.993194" lon="-76.769392">
    </trkpt>
    <trkpt lat="39.002818" lon="-76.760951">
    </trkpt>
    <trkpt lat="39.003372" lon="-76.760259">
    </trkpt>
    <trkpt lat="38.963198" lon="-76.751661">
    </trkpt>
    <trkpt lat="38.944907" lon="-76.723158">
    </trkpt>
    <trkpt lat="38.986741" lon="-76.621991">
    </trkpt>
    <trkpt lat="38.995156" lon="-76.533195">
    </trkpt>
    <trkpt lat="38.98111" lon="-76.521887">
    </trkpt>
    <trkpt lat="38.979459" lon="-76.505895">
    </trkpt>
    <trkpt lat="39.026427" lon="-76.445233">
    </trkpt>
    <trkpt lat="38.996847" lon="-76.392392">
    </trkpt>
    <trkpt lat="38.97969" lon="-76.321915">
    </trkpt>
    <trkpt lat="38.989567" lon="-76.309106">
    </trkpt>
    <trkpt lat="38.958371" lon="-76.210805">
    </trkpt>
    <trkpt lat="38.961688" lon="-76.185772">
    </trkpt>
    <trkpt lat="39.011436" lon="-76.128856">
    </trkpt>
    <trkpt lat="38.976266" lon="-76.003461">
    </trkpt>
    <trkpt lat="38.977884" lon="-75.955811">
    </trkpt>
    <trkpt lat="38.947786" lon="-75.884412">
    </trkpt>
    <trkpt lat="38.857952" lon="-75.801879">
    </trkpt>
    <trkpt lat="38.8506792" lon="-75.6948237">
    </trkpt>
    <trkpt lat="38.8077224" lon="-75.6786219">
    </trkpt>
    <trkpt lat="38.763293" lon="-75.6107317">
    </trkpt>
    <trkpt lat="38.7412889" lon="-75.5219268">
    </trkpt>
    <trkpt lat="38.736048" lon="-75.4365611">
    </trkpt>
    <trkpt lat="38.7710223" lon="-75.3748551">
    </trkpt>
    <trkpt lat="38.7795966" lon="-75.3142937">
    </trkpt>
    <trkpt lat="38.7404455" lon="-75.2227519">
    </trkpt>
    <trkpt lat="38.7883562" lon="-75.0868645">
    </trkpt>
  </trkseg>
  <trkseg>
    <trkpt lat="38.99009285360161" lon="-76.773853559316947">
    </trkpt>
    <trkpt lat="38.990085" lon="-76.773854">
    </trkpt>
    <trkpt lat="38.990093" lon="-76.773853">
    </trkpt>
    <trkpt lat="38.99009285360161" lon="-76.773853559316947">
    </trkpt>
  </trkseg>
</trk>
</gpx>
