<?xml version="1.0" ?><gpx xmlns="http://www.topografix.com/GPX/1/1" creator="GaiaGPS" version="1.1" xmlns:xsi="http://www.w3.org/2001/XMLSchema-instance" xsi:schemaLocation="http://www.topografix.com/GPX/1/1 http://www.topografix.com/GPX/1/1/gpx.xsd"><trk><name>Sayward Forest Canoe Route on GPSies.com</name><desc></desc><extensions><line xmlns="http://www.topografix.com/GPX/gpx_style/0/2"><color>0498FF</color></line></extensions><trkseg><trkpt lat="50.085697" lon="-125.517029"><ele>55.0</ele><time>2010-01-01T00:00:00Z</time></trkpt><trkpt lat="50.087765" lon="-125.513596"><ele>55.0</ele><time>2010-01-01T00:01:15Z</time></trkpt><trkpt lat="50.089157" lon="-125.501556"><ele>151.0</ele><time>2010-01-01T00:04:30Z</time></trkpt><trkpt lat="50.094456" lon="-125.50058"><ele>398.0</ele><time>2010-01-01T00:06:43Z</time></trkpt><trkpt lat="50.10371" lon="-125.499527"><ele>261.0</ele><time>2010-01-01T00:10:33Z</time></trkpt><trkpt lat="50.118488" lon="-125.496864"><ele>250.0</ele><time>2010-01-01T00:16:44Z</time></trkpt><trkpt lat="50.131962" lon="-125.495041"><ele>760.0</ele><time>2010-01-01T00:22:20Z</time></trkpt><trkpt lat="50.133533" lon="-125.497002"><ele>841.0</ele><time>2010-01-01T00:23:10Z</time></trkpt><trkpt lat="50.13834" lon="-125.49707"><ele>-19999.0</ele><time>2010-01-01T00:25:10Z</time></trkpt><trkpt lat="50.140362" lon="-125.498543"><ele>-19999.0</ele><time>2010-01-01T00:26:05Z</time></trkpt><trkpt lat="50.145706" lon="-125.496017"><ele>1303.0</ele><time>2010-01-01T00:28:24Z</time></trkpt><trkpt lat="50.149433" lon="-125.490829"><ele>1215.0</ele><time>2010-01-01T00:30:28Z</time></trkpt><trkpt lat="50.154465" lon="-125.490829"><ele>1124.0</ele><time>2010-01-01T00:32:34Z</time></trkpt><trkpt lat="50.15855" lon="-125.491318"><ele>776.0</ele><time>2010-01-01T00:34:16Z</time></trkpt><trkpt lat="50.165077" lon="-125.488113"><ele>483.0</ele><time>2010-01-01T00:37:06Z</time></trkpt><trkpt lat="50.169106" lon="-125.488228"><ele>614.0</ele><time>2010-01-01T00:38:46Z</time></trkpt><trkpt lat="50.173508" lon="-125.486969"><ele>595.0</ele><time>2010-01-01T00:40:37Z</time></trkpt><trkpt lat="50.177017" lon="-125.497475"><ele>705.0</ele><time>2010-01-01T00:43:46Z</time></trkpt><trkpt lat="50.176365" lon="-125.503006"><ele>678.0</ele><time>2010-01-01T00:45:16Z</time></trkpt><trkpt lat="50.175125" lon="-125.504356"><ele>770.0</ele><time>2010-01-01T00:45:53Z</time></trkpt><trkpt lat="50.174496" lon="-125.505409"><ele>840.0</ele><time>2010-01-01T00:46:16Z</time></trkpt><trkpt lat="50.174675" lon="-125.508286"><ele>801.0</ele><time>2010-01-01T00:47:02Z</time></trkpt><trkpt lat="50.174946" lon="-125.51712"><ele>1041.0</ele><time>2010-01-01T00:49:23Z</time></trkpt><trkpt lat="50.171982" lon="-125.525604"><ele>1392.0</ele><time>2010-01-01T00:51:57Z</time></trkpt><trkpt lat="50.168568" lon="-125.530792"><ele>-19999.0</ele><time>2010-01-01T00:53:56Z</time></trkpt><trkpt lat="50.168343" lon="-125.542084"><ele>1376.0</ele><time>2010-01-01T00:56:56Z</time></trkpt><trkpt lat="50.167625" lon="-125.551407"><ele>1339.0</ele><time>2010-01-01T00:59:25Z</time></trkpt><trkpt lat="50.169243" lon="-125.558205"><ele>1195.0</ele><time>2010-01-01T01:01:21Z</time></trkpt><trkpt lat="50.165379" lon="-125.559677"><ele>972.0</ele><time>2010-01-01T01:03:00Z</time></trkpt><trkpt lat="50.152397" lon="-125.56192"><ele>1168.0</ele><time>2010-01-01T01:08:25Z</time></trkpt><trkpt lat="50.151409" lon="-125.562317"><ele>1081.0</ele><time>2010-01-01T01:08:50Z</time></trkpt><trkpt lat="50.141483" lon="-125.568207"><ele>731.0</ele><time>2010-01-01T01:13:14Z</time></trkpt><trkpt lat="50.138569" lon="-125.569878"><ele>790.0</ele><time>2010-01-01T01:14:32Z</time></trkpt><trkpt lat="50.136719" lon="-125.568336"><ele>805.0</ele><time>2010-01-01T01:15:24Z</time></trkpt><trkpt lat="50.137123" lon="-125.570869"><ele>813.0</ele><time>2010-01-01T01:16:06Z</time></trkpt><trkpt lat="50.135151" lon="-125.573601"><ele>857.0</ele><time>2010-01-01T01:17:11Z</time></trkpt><trkpt lat="50.133308" lon="-125.576134"><ele>841.0</ele><time>2010-01-01T01:18:12Z</time></trkpt><trkpt lat="50.131603" lon="-125.576675"><ele>845.0</ele><time>2010-01-01T01:18:56Z</time></trkpt><trkpt lat="50.127483" lon="-125.576691"><ele>947.0</ele><time>2010-01-01T01:20:38Z</time></trkpt><trkpt lat="50.124996" lon="-125.576302"><ele>1099.0</ele><time>2010-01-01T01:21:40Z</time></trkpt><trkpt lat="50.120193" lon="-125.576607"><ele>1083.0</ele><time>2010-01-01T01:23:40Z</time></trkpt><trkpt lat="50.117455" lon="-125.579689"><ele>940.0</ele><time>2010-01-01T01:25:04Z</time></trkpt><trkpt lat="50.114689" lon="-125.580627"><ele>795.0</ele><time>2010-01-01T01:26:14Z</time></trkpt><trkpt lat="50.112648" lon="-125.579063"><ele>594.0</ele><time>2010-01-01T01:27:11Z</time></trkpt><trkpt lat="50.105633" lon="-125.581116"><ele>55.0</ele><time>2010-01-01T01:30:08Z</time></trkpt><trkpt lat="50.094566" lon="-125.582977"><ele>55.0</ele><time>2010-01-01T01:34:45Z</time></trkpt><trkpt lat="50.085133" lon="-125.584938"><ele>95.0</ele><time>2010-01-01T01:38:42Z</time></trkpt><trkpt lat="50.080605" lon="-125.58876"><ele>332.0</ele><time>2010-01-01T01:40:50Z</time></trkpt><trkpt lat="50.078594" lon="-125.588562"><ele>547.0</ele><time>2010-01-01T01:41:40Z</time></trkpt><trkpt lat="50.076355" lon="-125.58989"><ele>652.0</ele><time>2010-01-01T01:42:40Z</time></trkpt><trkpt lat="50.074867" lon="-125.589005"><ele>794.0</ele><time>2010-01-01T01:43:20Z</time></trkpt><trkpt lat="50.073624" lon="-125.587936"><ele>878.0</ele><time>2010-01-01T01:43:55Z</time></trkpt><trkpt lat="50.069305" lon="-125.589622"><ele>779.0</ele><time>2010-01-01T01:45:46Z</time></trkpt><trkpt lat="50.067463" lon="-125.59024"><ele>757.0</ele><time>2010-01-01T01:46:33Z</time></trkpt><trkpt lat="50.066654" lon="-125.591713"><ele>802.0</ele><time>2010-01-01T01:47:04Z</time></trkpt><trkpt lat="50.06517" lon="-125.59388"><ele>874.0</ele><time>2010-01-01T01:47:54Z</time></trkpt><trkpt lat="50.061489" lon="-125.595558"><ele>781.0</ele><time>2010-01-01T01:49:30Z</time></trkpt><trkpt lat="50.055786" lon="-125.596245"><ele>681.0</ele><time>2010-01-01T01:51:52Z</time></trkpt><trkpt lat="50.051922" lon="-125.594429"><ele>629.0</ele><time>2010-01-01T01:53:32Z</time></trkpt><trkpt lat="50.050304" lon="-125.595337"><ele>657.0</ele><time>2010-01-01T01:54:15Z</time></trkpt><trkpt lat="50.048012" lon="-125.594917"><ele>642.0</ele><time>2010-01-01T01:55:12Z</time></trkpt><trkpt lat="50.0462" lon="-125.594803"><ele>633.0</ele><time>2010-01-01T01:55:58Z</time></trkpt><trkpt lat="50.044506" lon="-125.59539"><ele>614.0</ele><time>2010-01-01T01:56:41Z</time></trkpt><trkpt lat="50.043118" lon="-125.595894"><ele>619.0</ele><time>2010-01-01T01:57:16Z</time></trkpt><trkpt lat="50.041187" lon="-125.59639"><ele>593.0</ele><time>2010-01-01T01:58:05Z</time></trkpt><trkpt lat="50.040108" lon="-125.595963"><ele>559.0</ele><time>2010-01-01T01:58:33Z</time></trkpt><trkpt lat="50.039974" lon="-125.594429"><ele>522.0</ele><time>2010-01-01T01:58:57Z</time></trkpt><trkpt lat="50.039303" lon="-125.593307"><ele>501.0</ele><time>2010-01-01T01:59:22Z</time></trkpt><trkpt lat="50.038303" lon="-125.592697"><ele>484.0</ele><time>2010-01-01T01:59:49Z</time></trkpt><trkpt lat="50.036686" lon="-125.59095"><ele>461.0</ele><time>2010-01-01T02:00:38Z</time></trkpt><trkpt lat="50.03479" lon="-125.590172"><ele>407.0</ele><time>2010-01-01T02:01:26Z</time></trkpt><trkpt lat="50.030273" lon="-125.585121"><ele>229.0</ele><time>2010-01-01T02:03:45Z</time></trkpt><trkpt lat="50.02668" lon="-125.579102"><ele>55.0</ele><time>2010-01-01T02:05:56Z</time></trkpt><trkpt lat="50.024658" lon="-125.572464"><ele>55.0</ele><time>2010-01-01T02:07:53Z</time></trkpt><trkpt lat="50.023941" lon="-125.570084"><ele>55.0</ele><time>2010-01-01T02:08:35Z</time></trkpt><trkpt lat="50.022636" lon="-125.568619"><ele>55.0</ele><time>2010-01-01T02:09:16Z</time></trkpt><trkpt lat="50.01981" lon="-125.566589"><ele>55.0</ele><time>2010-01-01T02:10:33Z</time></trkpt><trkpt lat="50.018009" lon="-125.560295"><ele>55.0</ele><time>2010-01-01T02:12:23Z</time></trkpt><trkpt lat="50.016621" lon="-125.539742"><ele>55.0</ele><time>2010-01-01T02:17:53Z</time></trkpt><trkpt lat="50.01572" lon="-125.533447"><ele>55.0</ele><time>2010-01-01T02:19:37Z</time></trkpt><trkpt lat="50.016979" lon="-125.526878"><ele>283.0</ele><time>2010-01-01T02:21:26Z</time></trkpt><trkpt lat="50.019852" lon="-125.517296"><ele>559.0</ele><time>2010-01-01T02:24:15Z</time></trkpt><trkpt lat="50.021648" lon="-125.509048"><ele>662.0</ele><time>2010-01-01T02:26:34Z</time></trkpt><trkpt lat="50.026951" lon="-125.502472"><ele>626.0</ele><time>2010-01-01T02:29:23Z</time></trkpt><trkpt lat="50.030182" lon="-125.496101"><ele>530.0</ele><time>2010-01-01T02:31:33Z</time></trkpt><trkpt lat="50.035526" lon="-125.492889"><ele>226.0</ele><time>2010-01-01T02:33:55Z</time></trkpt><trkpt lat="50.036461" lon="-125.493881"><ele>217.0</ele><time>2010-01-01T02:34:23Z</time></trkpt><trkpt lat="50.038479" lon="-125.497948"><ele>178.0</ele><time>2010-01-01T02:35:46Z</time></trkpt><trkpt lat="50.041359" lon="-125.499275"><ele>115.0</ele><time>2010-01-01T02:37:00Z</time></trkpt><trkpt lat="50.043629" lon="-125.50013"><ele>150.0</ele><time>2010-01-01T02:37:58Z</time></trkpt><trkpt lat="50.045189" lon="-125.501396"><ele>175.0</ele><time>2010-01-01T02:38:42Z</time></trkpt><trkpt lat="50.049721" lon="-125.501839"><ele>55.0</ele><time>2010-01-01T02:40:35Z</time></trkpt><trkpt lat="50.053406" lon="-125.502609"><ele>55.0</ele><time>2010-01-01T02:42:08Z</time></trkpt><trkpt lat="50.056099" lon="-125.501556"><ele>55.0</ele><time>2010-01-01T02:43:17Z</time></trkpt><trkpt lat="50.068768" lon="-125.505966"><ele>55.0</ele><time>2010-01-01T02:48:40Z</time></trkpt><trkpt lat="50.069202" lon="-125.506653"><ele>55.0</ele><time>2010-01-01T02:48:55Z</time></trkpt><trkpt lat="50.072273" lon="-125.509796"><ele>55.0</ele><time>2010-01-01T02:50:26Z</time></trkpt><trkpt lat="50.075054" lon="-125.509605"><ele>55.0</ele><time>2010-01-01T02:51:36Z</time></trkpt><trkpt lat="50.077435" lon="-125.509956"><ele>55.0</ele><time>2010-01-01T02:52:35Z</time></trkpt><trkpt lat="50.079906" lon="-125.513596"><ele>55.0</ele><time>2010-01-01T02:54:00Z</time></trkpt><trkpt lat="50.083851" lon="-125.515434"><ele>55.0</ele><time>2010-01-01T02:55:42Z</time></trkpt><trkpt lat="50.085697" lon="-125.517029"><ele>55.0</ele><time>2010-01-01T02:56:35Z</time></trkpt></trkseg></trk></gpx>