<?xml version="1.0"?>
<gpx xmlns="http://www.topografix.com/GPX/1/1" xmlns:gpxx="http://www.garmin.com/xmlschemas/GpxExtensions/v3" creator="CALTOPO" version="1.1"><metadata><name><![CDATA[8B - Hog bayou finish, required if windy, very scenic]]></name></metadata><trk><name>8B - Hog bayou finish, required if windy, very scenic</name><trkseg><trkpt lat="29.579939" lon="-91.42156"><ele>0.0</ele></trkpt><trkpt lat="29.574764" lon="-91.42732"><ele>0.0</ele></trkpt><trkpt lat="29.571651" lon="-91.434875"><ele>0.0</ele></trkpt><trkpt lat="29.572363" lon="-91.436615"><ele>0.0</ele></trkpt><trkpt lat="29.572866" lon="-91.43841"><ele>0.0</ele></trkpt><trkpt lat="29.572113" lon="-91.440025"><ele>0.0</ele></trkpt><trkpt lat="29.570253" lon="-91.44067"><ele>0.0</ele></trkpt><trkpt lat="29.568846" lon="-91.44067"><ele>0.0</ele></trkpt><trkpt lat="29.567537" lon="-91.44073"><ele>0.0</ele></trkpt><trkpt lat="29.566633" lon="-91.442"><ele>0.0</ele></trkpt><trkpt lat="29.567038" lon="-91.44443"><ele>0.0</ele></trkpt><trkpt lat="29.568144" lon="-91.446915"><ele>0.0</ele></trkpt><trkpt lat="29.569351" lon="-91.44824"><ele>0.0</ele></trkpt><trkpt lat="29.57066" lon="-91.448296"><ele>0.0</ele></trkpt><trkpt lat="29.573324" lon="-91.447426"><ele>0.0</ele></trkpt><trkpt lat="29.575235" lon="-91.44812"><ele>0.0</ele></trkpt><trkpt lat="29.577047" lon="-91.44893"><ele>0.0</ele></trkpt><trkpt lat="29.57745" lon="-91.45014"><ele>0.0</ele></trkpt><trkpt lat="29.576595" lon="-91.4513"><ele>0.0</ele></trkpt><trkpt lat="29.575037" lon="-91.451996"><ele>0.0</ele></trkpt><trkpt lat="29.573477" lon="-91.4524"><ele>0.0</ele></trkpt><trkpt lat="29.572824" lon="-91.45292"><ele>0.0</ele></trkpt><trkpt lat="29.57212" lon="-91.45471"><ele>0.0</ele></trkpt><trkpt lat="29.572725" lon="-91.455696"><ele>0.0</ele></trkpt><trkpt lat="29.574736" lon="-91.45575"><ele>0.0</ele></trkpt><trkpt lat="29.576447" lon="-91.45541"><ele>0.0</ele></trkpt><trkpt lat="29.57755" lon="-91.45483"><ele>0.0</ele></trkpt><trkpt lat="29.578205" lon="-91.455284"><ele>0.0</ele></trkpt><trkpt lat="29.577553" lon="-91.45749"><ele>0.0</ele></trkpt><trkpt lat="29.576345" lon="-91.46066"><ele>0.0</ele></trkpt><trkpt lat="29.574688" lon="-91.46258"><ele>0.0</ele></trkpt><trkpt lat="29.572727" lon="-91.46356"><ele>0.0</ele></trkpt><trkpt lat="29.571571" lon="-91.465065"><ele>0.0</ele></trkpt><trkpt lat="29.571371" lon="-91.4668"><ele>0.0</ele></trkpt><trkpt lat="29.572376" lon="-91.4683"><ele>0.0</ele></trkpt><trkpt lat="29.573534" lon="-91.46824"><ele>0.0</ele></trkpt><trkpt lat="29.57474" lon="-91.466446"><ele>0.0</ele></trkpt><trkpt lat="29.575344" lon="-91.46506"><ele>0.0</ele></trkpt><trkpt lat="29.576902" lon="-91.464424"><ele>-1.0</ele></trkpt><trkpt lat="29.57826" lon="-91.46581"><ele>-1.0</ele></trkpt><trkpt lat="29.577957" lon="-91.46772"><ele>-1.0</ele></trkpt><trkpt lat="29.577204" lon="-91.46957"><ele>-1.0</ele></trkpt><trkpt lat="29.577456" lon="-91.47078"><ele>-1.0</ele></trkpt><trkpt lat="29.578413" lon="-91.47246"><ele>-1.0</ele></trkpt><trkpt lat="29.57771" lon="-91.475525"><ele>-1.0</ele></trkpt><trkpt lat="29.576756" lon="-91.47824"><ele>-1.0</ele></trkpt><trkpt lat="29.575802" lon="-91.479454"><ele>-1.0</ele></trkpt><trkpt lat="29.574343" lon="-91.479"><ele>-1.0</ele></trkpt><trkpt lat="29.572834" lon="-91.47888"><ele>-1.0</ele></trkpt><trkpt lat="29.571123" lon="-91.47905"><ele>-1.0</ele></trkpt><trkpt lat="29.569767" lon="-91.480095"><ele>-1.0</ele></trkpt><trkpt lat="29.567757" lon="-91.48218"><ele>-1.0</ele></trkpt><trkpt lat="29.566448" lon="-91.48443"><ele>-1.0</ele></trkpt><trkpt lat="29.565495" lon="-91.487206"><ele>-1.0</ele></trkpt><trkpt lat="29.56665" lon="-91.48906"><ele>-1.0</ele></trkpt><trkpt lat="29.568562" lon="-91.49044"><ele>-1.0</ele></trkpt><trkpt lat="29.569166" lon="-91.49235"><ele>-1.0</ele></trkpt><trkpt lat="29.568312" lon="-91.49322"><ele>-1.0</ele></trkpt><trkpt lat="29.56605" lon="-91.492645"><ele>-1.0</ele></trkpt><trkpt lat="29.563883" lon="-91.49253"><ele>-1.0</ele></trkpt><trkpt lat="29.562574" lon="-91.493"><ele>-1.0</ele></trkpt><trkpt lat="29.561619" lon="-91.49571"><ele>-1.0</ele></trkpt><trkpt lat="29.560362" lon="-91.49918"><ele>0.0</ele></trkpt><trkpt lat="29.558754" lon="-91.50185"><ele>0.0</ele></trkpt><trkpt lat="29.55744" lon="-91.503105"><ele>-1.0</ele></trkpt><trkpt lat="29.557291" lon="-91.51958"><ele>-1.0</ele></trkpt><trkpt lat="29.557333" lon="-91.52198"><ele>-1.0</ele></trkpt><trkpt lat="29.556847" lon="-91.52393"><ele>-1.0</ele></trkpt><trkpt lat="29.554413" lon="-91.52447"><ele>-1.0</ele></trkpt><trkpt lat="29.551407" lon="-91.526"><ele>-1.0</ele></trkpt></trkseg></trk></gpx>